code;site;city;province;latitude;longitude
110006;"VI/JUNDIZ";"VITORIA";"ALAVA";42.8407222;-2.7375120
110007;"ARGANDOÑA";"ARGANDOÑA";"ALAVA";42.8391416;-2.5833929
110008;"MIÑANO CT TSM - 0100013";"MIÑANO";"ALAVA";42.9114931;-2.6582152
110010;"ENTE PUBLICO AEROP. TSM - 0100100";"ANTEZANA";"ALAVA";42.8876297;-2.7259016
110032;"JUNDIZ/SECTOR 21";"VITORIA";"ALAVA";42.8407222;-2.7375120
110037;"JUNDIZ/PADULETA ARMARIO U";"JUNDIZ";"ALAVA";42.8516484;-2.7419310
110038;"VI/BULEVAR OFICINAS";"VITORIA";"ALAVA";42.8465088;-2.6724025
110040;"VI/OLMOS";"VITORIA";"ALAVA";42.8736232;-2.6534878
110090;"";"VITORIA";"ALAVA";42.8465088;-2.6724025
268001;"HELLÍN/S.RAFAEL";"HELLIN";"ALBACETE";38.5418143;-1.7023437
268004;"MINAS";"HELLIN";"ALBACETE";38.3307277;-1.6809272
268007;"AGRAMON TSM - 0200264";"AGRAMON";"ALBACETE";38.4226504;-1.6374099
268010;"MINATEDA";"HELLIN";"ALBACETE";38.4666173;-1.6116892
268011;"CANCARIX";"HELLIN";"ALBACETE";38.5106649;-1.6995137
268012;"ISSO";"HELLIN";"ALBACETE";38.4913318;-1.7441228
268013;"NAVACAMPAÑA TSM-0200144";"HELLIN";"ALBACETE";38.5106649;-1.6995137
268014;"HELLIN MINGOGIL MUXFIN";"HELLIN";"ALBACETE";38.5106649;-1.6995137
268015;"MUXFIN CAÑADA DE AGRA";"HELLIN";"ALBACETE";38.5106649;-1.6995137
270002;"RODA";"LA RODA";"ALBACETE";39.1993692;-2.1628730
270005;"SANTA MARTA ER TSM - 0200133";"RODA (LA)";"ALBACETE";39.2070200;-2.1581637
311002;"COVETA FUMA";"CAMPELLO (EL)";"ALICANTE";38.4501399;-0.3645117
320003;"SARGENTO";"BARADELLO";"ALICANTE";38.7094947;-0.5211359
361010;"BALCONES";"LOS BALCONES";"ALICANTE";38.4445747;-0.4304897
361016;"CHAPARRAL (A)";"CHAPARRAL, EL";"ALICANTE";38.0108639;-0.6947065
362008;"NUCIA, LA";"NUCIA, LA";"ALICANTE";38.5941217;-0.1228864
362013;"BARRANCO HONDO";"BARRANCO HONDO";"ALICANTE";38.3436365;-0.4881708
362021;"TERRA MITICA";"BENIDORM";"ALICANTE";38.5596154;-0.1614326
363001;"BENISA";"BENISA";"ALICANTE";38.3436365;-0.4881708
363016;"VERDEROL";"FANADIX";"ALICANTE";38.6809271;0.0880142
364004;"MUXFIN 1 EN BENITACHELL/CANSALADES";"JAVEA/XABIA";"ALICANTE";38.7893804;0.1634168
364005;"ONDARA/GRUP DE PREMSA INDEPEN TSM";"ONDARA";"ALICANTE";38.8277759;0.0170054
364008;"JAVEA/PORTICHOL CT TSM - 0300068";"JAVEA";"ALICANTE";38.7893804;0.1634168
364010;"PARTIDA DEVESES";"PARTIDA DEVESES";"ALICANTE";38.8643611;0.0130545
369005;"ENCINA (A)";"VILLENA";"ALICANTE";38.7638134;-0.9529798
412001;"BENAHADUX";"BENAHADUX";"ALMERIA";36.9299963;-2.4669778
412002;"PECHINA";"PECHINA";"ALMERIA";36.9143469;-2.4430868
414003;"MARINAS";"ROQUETAS DE MAR";"ALMERIA";36.7325716;-2.6315717
414005;"PUEBLA DE VICAR";"PUEBLA DE VICAR";"ALMERIA";36.7993697;-2.6513806
414006;"S.AGUSTIN (AL)";"EJIDO (EL)";"ALMERIA";36.7132809;-2.6952550
414007;"CONGO";"VICAR";"ALMERIA";36.7860007;-2.6443146
414009;"ENVIA";"VICAR";"ALMERIA";36.8371214;-2.6197241
414010;"HORTICHUELAS MUXFIN";"ROQUETAS DE MAR";"ALMERIA";36.7630203;-2.6115886
414011;"MARINAS MUXFIN EL SOLANILLO PTRO 6";"MARINAS, LAS";"ALMERIA";37.1933670;-1.8143199
414012;"ROQUETAS DE MAR/MUXFINs ACTORES 1_2_3";"ROQUETAS DE MAR";"ALMERIA";36.7327109;-2.6194148
462002;"BALANEGRA";"BALANEGRA";"ALMERIA";36.7480100;-2.9076800
462006;"ALMERIMAR CT TSM - 0400034";"EJIDO (EL)";"ALMERIA";36.7743863;-2.8124886
462007;"BALERMA";"EJIDO (EL)";"ALMERIA";36.7743863;-2.8124886
462008;"GUAINOS BAJO";"ADRA";"ALMERIA";36.7470174;-3.0711060
462009;"CURVA";"ADRA";"ALMERIA";36.7584361;-2.9792221
462010;"NORIAS";"EJIDO (EL)";"ALMERIA";36.7569593;-2.7507129
462011;"MATAGORDA";"EJIDO (EL)";"ALMERIA";36.7240776;-2.8416804
462012;"STA.Mª AGUILA";"SANTA MARIA DEL AGUILA";"ALMERIA";36.7781634;-2.7726265
462013;"ALMAR/LAGO.LITESPAN";"ALMERIMAR";"ALMERIA";36.7078670;-2.8074558
462014;"ALMERIMAR MUXFIN LAS ENTINAS";"ALMERIMAR";"ALMERIA";36.7078670;-2.8074558
462016;"STA.M.AGUILA MUX. LA REDONDA SUR";"SANTA MARIA DEL AGUILA";"ALMERIA";36.7806450;-2.7736816
462777;"";"EJIDO (EL)";"ALMERIA";36.7743863;-2.8124886
463010;"OLULA RIO";"OLULA DEL RIO";"ALMERIA";37.3866481;-2.3114264
468005;"HUERCAL OVERA";"HUERCAL OVERA";"ALMERIA";37.3870788;-1.9350318
468012;"MENAS";"MENAS, LOS";"ALMERIA";37.3483583;-1.9806405
468017;"STA.Mª NIEVA";"HUERCAL-OVERA";"ALMERIA";37.3895979;-1.9450652
468018;"URCAL";"HUERCAL-OVERA";"ALMERIA";37.4664179;-1.9213003
468024;"SAN FRANCISCO FITL/MUXFIN";"HUERCAL OVERA";"ALMERIA";37.3895979;-1.9450652
3310019;"PRONI (MERES)";"SIERO";"ASTURIAS";43.3833917;-5.7544324
3310021;"MERES (MERES)";"MERES (SIERO)";"ASTURIAS";43.3809966;-5.7485924
3312001;"ABLAÑA ARRIBA";"MIERES";"ASTURIAS";43.2349957;-5.7699319
3312002;"UJO CT";"MIERES";"ASTURIAS";43.2349957;-5.7699319
3312003;"FIGAREDO";"MIERES";"ASTURIAS";43.2108523;-5.7827229
3312004;"TURON CT";"MIERES";"ASTURIAS";43.2349957;-5.7699319
3312007;"RIOTURBIO";"MIERES";"ASTURIAS";43.2642052;-5.7402859
3313001;"CARBAYIN";"SIERO";"ASTURIAS";43.3952982;-5.6357023
3313003;"LIERES";"SIERO";"ASTURIAS";43.3805889;-5.5825697
3313007;"PEÑA MEA 1 CT";"SIERO";"ASTURIAS";43.3841397;-5.6990132
3313008;"PEÑA MEA 2 CT (SAN MARTIN)";"SIERO";"ASTURIAS";43.3952982;-5.6357023
3315001;"TRAPA (LANGREO)";"LANGREO";"ASTURIAS";43.2920285;-5.7488639
3315004;"LANGREO/RIAÑO I";"LANGREO";"ASTURIAS";43.2950131;-5.6834310
3315005;"LANGREO/RIAÑO II/III";"LANGREO";"ASTURIAS";43.2950131;-5.6834310
3315009;"TUILLA";"LANGREO";"ASTURIAS";43.3280286;-5.6432609
3320004;"CANCIENES";"CORVERA DE ASTURIAS";"ASTURIAS";43.5178456;-5.8877648
3320006;"SALINAS";"CASTRILLON";"ASTURIAS";43.5704918;-5.9565128
3320007;"CENSO";"CASTRILLON";"ASTURIAS";43.5616189;-6.0309098
3320010;"VEGAS/BALAGARES";"VEGAS, LAS (CORVERA)";"ASTURIAS";43.5353542;-5.9011031
3320090;"";"AVILÉS";"ASTURIAS";43.5554436;-5.9222466
3367006;"CONDADO";"LAVIANA";"ASTURIAS";43.2369778;-5.5046584
3367007;"VILLORIA (ASTURIAS)";"LAVIANA";"ASTURIAS";43.2160373;-5.5660684
510003;"ALAMEDILLA BERROCAL";"AVILA";"AVILA";40.7070764;-4.7659300
510004;"NARRILLOS S.LEONARDO";"AVILA";"AVILA";40.6950580;-4.7242665
510005;"VICOLOZANO (POLIG.)";"VICOLOZANO";"AVILA";40.6818449;-4.6326631
510006;"AV/PATRIMONIO HUMANIDAD";"AVILA";"AVILA";40.6700684;-4.6612184
510008;"AV/VALLE AMBLES";"AVILA";"AVILA";40.5549090;-4.9020959
510009;"AV/SONSOLES";"AVILA";"AVILA";40.4788310;-4.6830021
510011;"AV/RIO CEA";"AVILA";"AVILA";40.6692794;-4.6839392
510012;"AV-AVILA ER TSM - 0500001";"AVILA";"AVILA";40.6564780;-4.7002172
510014;"AV/CIUDAD DEPORTIVA";"AVILA";"AVILA";40.6564780;-4.7002172
510015;"AVILA/TIRO DE PICHON";"AVILA";"AVILA";40.6564780;-4.7002172
510090;"";"AVILA";"AVILA";40.6564780;-4.7002172
512002;"BERNUY-SALINERO";"AVILA";"AVILA";40.6564780;-4.7002172
610001;"DEHESILLA DE CALAMON MUXFIN";"BADAJOZ";"BADAJOZ";38.8244990;-6.9484980
610003;"GEVORA CAUDILLO";"BADAJOZ";"BADAJOZ";38.9207700;-6.9402100
610004;"SAGRAJAS";"SAGRAJAS";"BADAJOZ";38.9238931;-6.9016743
610006;"VALDEBOTOA";"VALDEBOTOA";"BADAJOZ";38.9678479;-6.9244834
610007;"BADAJOZ VAGUADAS CENTRAL TELEFONIC";"BADAJOZ";"BADAJOZ";38.8781870;-6.9701110
610009;"RONDA NORTE";"BADAJOZ";"BADAJOZ";38.9005980;-6.8167600
610090;"";"BADAJOZ";"BADAJOZ";38.8781870;-6.9701115
612001;"GUADIANA CAUDILLO";"GUADIANA DEL CAUDILLO";"BADAJOZ";38.9292049;-6.6917215
612002;"NOVELDA GUADIANA";"NOVELDA DEL GUADIANA";"BADAJOZ";38.9399040;-6.8313670
612004;"ALCAZABA";"ALCAZABA";"BADAJOZ";38.9529740;-6.7404889
613001;"OLIVENZA";"OLIVENZA";"BADAJOZ";38.6854813;-7.0995738
613003;"S.FRANCISCO OLIVENZA";"OLIVENZA";"BADAJOZ";38.7464639;-7.1048526
613004;"S.BENITO CONTIENDA";"OLIVENZA";"BADAJOZ";38.6329452;-7.1583106
613005;"SAN JORGE DE ALOR MUXFIN";"OLIVENZA";"BADAJOZ";38.6443903;-7.0583404
614003;"BARBAÑO";"MONTIJO";"BADAJOZ";38.9098936;-6.6151799
614006;"MONTIJO";"MONTIJO";"BADAJOZ";38.9135304;-6.5985989
614009;"VILLAFRANCO GUADIANA";"BADAJOZ";"BADAJOZ";38.8845967;-6.8615222
614011;"BALBOA";"BADAJOZ";"BADAJOZ";38.9045600;-6.8180200
614013;"ALVARADO";"BADAJOZ";"BADAJOZ";38.8097664;-6.7907804
663006;"ALMENDRALEJO MUXFIN";"ALMENDRALEJO";"BADAJOZ";38.6846791;-6.4067802
667001;"ENTRERRIOS";"ENTRERRIOS";"BADAJOZ";39.0039111;-5.7255031
667006;"MUXFIN URBANIZACIÓN SECTOR 16-A.";"DON BENITO";"BADAJOZ";38.9540269;-5.8619466
667017;"VALDIVIA";"VALDIVIA";"BADAJOZ";39.0327034;-5.7095987
667023;"TORVISCAL";"TORVISCAL, EL";"BADAJOZ";39.0727224;-5.7538683
667025;"HERNAN CORTES";"DON BENITO";"BADAJOZ";39.0269062;-5.9325687
667027;"CONQUISTA GUADIANA";"DON BENITO";"BADAJOZ";39.0756874;-6.0369390
667029;"RUECAS";"DON BENITO";"BADAJOZ";39.0397571;-5.8754090
667030;"VALDEHORNILLOS CT";"VALDEHORNILLOS";"BADAJOZ";39.0576870;-5.9762537
667033;"ZURBARAN";"ZURBARAN";"BADAJOZ";38.9323059;-6.6888577
667035;"VIVARES";"DON BENITO";"BADAJOZ";39.0874537;-5.8957961
670004;"GUAREÑA";"GUAREÑA";"BADAJOZ";38.8968916;-6.1288749
673001;"MERIDA";"CARRASCALEJO";"BADAJOZ";39.0281440;-6.3375787
673015;"TORREFRESNEDA";"TORREFRESNEDA";"BADAJOZ";38.9893861;-6.1117275
673017;"CALAMONTE";"CALAMONTE";"BADAJOZ";38.8881800;-6.3870700
673019;"MERIDA/LUCRECIA  TSM - 0600046";"MERIDA";"BADAJOZ";38.9174665;-6.3443977
673023;"MERIDA/POLIG.PRADO";"MERIDA";"BADAJOZ";38.9174665;-6.3443977
673024;"INFANTA CRISTINA";"CALAMONTE";"BADAJOZ";38.8914538;-6.3916961
673082;"";"MERIDA";"BADAJOZ";38.9174665;-6.3443977
710003;"PM/MOLINA CT TSM - 0700012";"PALMA DE MALLORCA";"BALEARES";39.5812524;2.7092683
710007;"PM/CALA MAJOR CT TSM - 0700048";"PALMA DE MALLORCA";"BALEARES";39.5812524;2.7092683
710012;"S.JORDI (PM)";"PALMA DE MALLORCA";"BALEARES";39.5656901;2.7399726
710015;"SON SARDINA";"SON SARDINA";"BALEARES";39.6230983;2.6526724
710017;"PM/PARC BIT TSM - 0700463";"SON SARDINA";"BALEARES";39.6198928;2.6571006
710023;"PM/POLIGONO CAN VALERO R1";"PALMA DE MALLORCA";"BALEARES";39.5812524;2.7092683
710024;"LITESPAN RESIDENCIAL SALVADOR DALI";"PALMA DE MALLORCA";"BALEARES";39.5845177;2.6343370
710025;"LITESPAN MIRALL BALEAR";"PALMA DE MALLORCA";"BALEARES";39.5812524;2.7092683
710026;"CASETA MERCAPALMA";"PALMA DE MALLORCA";"BALEARES";39.5550369;2.7107377
710027;"MUXFIN POLIGONO SES VELES";"PALMA DE MALLORCA";"BALEARES";39.5812524;2.7092683
710028;"S.JORDI/SON GUAL";"PALMA DE MALLORCA";"BALEARES";39.5812524;2.7092683
710030;"PM/SON OMS";"PALMA DE MALLORCA";"BALEARES";39.5812524;2.7092683
710090;"";"PALMA";"BALEARES";39.5812524;2.7092683
762002;"PM/BINISSALEM EB TSM - 0700108";"BINISSALEM";"BALEARES";39.6889279;2.8420532
763002;"CALA MURADA";"MANACOR";"BALEARES";39.5513920;3.2382642
763008;"PORTOCRISTO";"MANACOR";"BALEARES";39.5423251;3.3344312
763015;"CALA MOREIA";"MANACOR";"BALEARES";39.5513920;3.2382642
763019;"CALA ANGUILA";"CALA ANGUILA";"BALEARES";39.5227800;3.3140100
779000;"";"PALMA";"BALEARES";39.5812524;2.7092683
810079;"MUXFIN ZAL2 EN LOCAL";"PRAT DE LLOBREGAT, EL";"BARCELONA";41.3140154;2.1327337
810087;"PRAT/AEROPUERTO T1";"PRAT DE LLOBREGAT (EL)";"BARCELONA";41.2884223;2.0724511
810109;"PRAT AEROPUERTO EB TSM";"PRAT DE LLOBREGAT (EL)";"BARCELONA";41.3246333;2.0952568
812008;"ZADE GLLE MONTMELO LITESP";"MONTMELO";"BARCELONA";41.5515189;2.2480812
813004;"CAN MIR";"CAN MIR";"BARCELONA";41.5540200;1.9720100
813008;"MUXFIN MINIDSLAM MOLI XEC";"RIPOLLET";"BARCELONA";41.4993372;2.1573095
814003;"GAVA/VILA CT TSM-0800113";"GAVA";"BARCELONA";41.3050933;2.0063126
814004;"MOLINS DE REI CT TSM - 0800149";"MOLINS DE REI";"BARCELONA";41.4138087;2.0159626
814012;"STA.COLOMA CERVELLO";"SANTA COLOMA DE CERVELLO";"BARCELONA";41.3672764;2.0155690
814017;"GAVA/MARITIM  TSM-0800286";"GAVA MARITIM";"BARCELONA";41.2652826;2.0021101
814023;"CASTELLDEFELS";"CASTELLDEFELS";"BARCELONA";41.2778900;1.9767400
814090;"";"SANT FELIU DE LLOBREGAT";"BARCELONA";41.3812851;2.0446381
820001;"MANRES/BUENAVISTA CT TSM - 0800037";"SANT FRUITOS DE BAGES";"BARCELONA";41.7532735;1.8749418
820003;"ST.FRUITOS BAGES CT TSM - 0800230";"SANT FRUITOS DE BAGES";"BARCELONA";41.7532735;1.8749418
822002;"NAVARCLES";"NAVARCLES";"BARCELONA";41.7514579;1.9036908
823007;"S.VICENÇ CASTELLET";"SANT VICENÇ DE CASTELLET";"BARCELONA";41.6661061;1.8623179
831001;"ARENYS MAR";"ARENYS DE MAR";"BARCELONA";41.5774115;2.5494194
840011;"POLINYA CT TSM - 0800340";"POLINYA";"BARCELONA";41.5581661;2.1584568
861003;"BERGA";"BERGA";"BARCELONA";42.0993400;1.8456300
862005;"S.FELIU CODINES";"SANT FELIU DE CODINES";"BARCELONA";41.7000532;2.1764572
863003;"PALAFOLLS";"PALAFOLLS";"BARCELONA";41.6715850;2.7512056
863008;"TORDERA (B)";"TORDERA";"BARCELONA";41.7070524;2.7194775
863098;"MONTAGUT ER  TSM - 0800043";"SANT GENIS DE PALAFOLLS";"BARCELONA";41.6601911;2.7224484
866006;"IGUALADA/CLAVE CT TSM - 0800234";"IGUALADA";"BARCELONA";41.5790182;1.6173460
866012;"VILANOVA CAMI";"VILANOVA DEL CAMI";"BARCELONA";41.5736925;1.6413821
867012;"TORELLO";"TORELLO";"BARCELONA";42.0521388;2.2599804
868009;"MARTORELL";"MARTORELL";"BARCELONA";41.4840287;1.9186015
868010;"MASQUEFA";"MASQUEFA";"BARCELONA";41.5029570;1.8125010
868019;"SAN VICENTE";"CASTELLBISBAL";"BARCELONA";41.4765136;1.9832978
870003;"LA BATLLORIA";"LA BATLLORIA";"BARCELONA";41.7195641;2.5549387
870008;"STA.Mª PALAUTORDERA";"SANTA MARIA DE PALAUTORDERA";"BARCELONA";41.6926704;2.4448078
871017;"VIC/COMTE BORRELL";"VIC";"BARCELONA";41.9302021;2.2545943
872003;"MONJOS";"MONJOS, ELS";"BARCELONA";41.3238488;1.6655354
872011;"MUXFIN SADURNI TRIOLA 3";"SANT SADURNI D`ANOIA";"BARCELONA";41.4244663;1.7863949
872017;"S.SADURNI D?ANOIA";"SANT SADURNI D`ANOIA";"BARCELONA";41.4386123;1.7828390
873002;"ST PERE RIBES";"SANT PERE DE RIBES";"BARCELONA";41.2624064;1.7719785
961012;"AGUILERA";"ARANDA DE DUERO";"BURGOS";41.7326210;-3.7699689
961043;"ARANDA DUERO/PRADO MARINA";"ARANDA DE DUERO";"BURGOS";41.6568699;-3.7232950
961044;"ARANDA DUERO/PORTUGAL";"ARANDA DE DUERO";"BURGOS";41.6660419;-3.7254136
961045;"ARANDA DUERO/CANARIAS";"ARANDA DE DUERO";"BURGOS";41.6715067;-3.6851172
961046;"ARANDA DUERO/FRANCESAS";"ARANDA DE DUERO";"BURGOS";41.6640119;-3.6889869
961047;"ARANDA DUERO/VALLADOLID";"ARANDA DE DUERO";"BURGOS";41.6646289;-3.7312585
966014;"MIRANDA EBRO/BARDAURI";"MIRANDA DE EBRO";"BURGOS";42.6403779;-2.9710177
966015;"MIRANDA EBRO/IRCIO";"MIRANDA DE EBRO";"BURGOS";42.6423348;-2.8813676
966016;"MIRANDA EBRO/ORON (EL CRUCERO)";"MIRANDA DE EBRO";"BURGOS";42.6403779;-2.9710177
966017;"MIRANDA EBRO/FUENCALIENTE";"MIRANDA DE EBRO";"BURGOS";42.6855632;-2.9478451
1010002;"CONQUISTADORES CT TSM - 1000013";"CACERES";"CACERES";40.0975514;-6.6236292
1010003;"PERU CT TSM - 1000017";"CACERES";"CACERES";40.0975514;-6.6236292
1010004;"CACERES/MEJOSTILLA";"CACERES";"CACERES";39.4911130;-6.3602151
1010005;"CC/CAPELLANIAS";"CACERES";"CACERES";39.4502634;-5.2321785
1010007;"RINCON DE BALLESTEROS CER-011004";"CACERES";"CACERES";40.0975514;-6.6236292
1010090;"";"CACERES";"CACERES";39.4745175;-6.3716761
1063003;"CORIA";"CORIA";"CACERES";39.9845263;-6.5365720
1063017;"PUEBLA ARGEME";"PUEBLA DE ARGEME";"CACERES";39.9827660;-6.4539356
1063018;"MUXFIN RINCON DEL OBISPO";"RINCON DEL OBISPO";"CACERES";39.9654998;-6.4924529
1066010;"VALDESALOR";"VALDESALOR";"CACERES";39.3839317;-6.3574340
1068009;"NAVALMORAL MATA";"NAVALMORAL DE LA MATA";"CACERES";39.8950006;-5.5456508
1068032;"NAVALMORAL/CAMPO ARAÑUELO MUXFIN";"NAVALMORAL DE LA MATA";"CACERES";39.8928306;-5.5401199
1069014;"PLASENCIA MUXFIN";"PLASENCIA";"CACERES";40.0299210;-6.0901680
1110090;"";"VEJER DE LA FRONTERA";"CADIZ";36.2519370;-5.9670492
1111002;"CHICLANA/BARROSA";"CHICLANA";"CADIZ";36.3369249;-6.1556149
1111003;"CHICLANA/S.ANDRES";"CHICLANA DE LA FRONTERA";"CADIZ";36.4191096;-6.1460683
1111004;"CHICLANA MUXFIN CARRILES - DOCTORAL - BARQUILLA - PAGO DEL HUMO";"CHICLANA DE LA FRONTERA";"CADIZ";36.3803859;-6.2003807
1111005;"";"CHICLANA DE LA FRONTERA";"CADIZ";36.4191096;-6.1460683
1111006;"CHICLANA S.JOSE PTRO-11 - PTRO15 - PTRO-12";"CHICLANA DE LA FRONTERA";"CADIZ";36.4191096;-6.1460683
1112001;"PTO.STA.MARIA/SALINAS PONIENTE - PUERTO SHERRY - EL JUNCAL";"PUERTO DE SANTA MARIA (EL)";"CADIZ";36.6041992;-6.2169966
1112003;"POBLADO NAVAL CT TSM - 1100067";"PUERTO DE SANTA MARIA, EL";"CADIZ";36.6041992;-6.2169966
1112005;"PTO.STA.Mª/P.D.BLANCA";"PUERTO DE SANTA MARIA, EL";"CADIZ";36.6041992;-6.2169966
1112006;"PTO.STA.Mª/MENESTEO";"PUERTO DE SANTA MARIA, EL";"CADIZ";36.5910772;-6.2319729
1114002;"BALLENA";"ROTA";"CADIZ";36.6228636;-6.3599595
1114003;"ROTA MUXFIN";"ROTA";"CADIZ";36.6228636;-6.3599595
1115004;"SAN FERNANDO MUXFIN";"SAN FERNANDO";"CADIZ";36.4646672;-6.1983492
1120004;"ALGECIRAS/PELAYO";"ALGECIRAS";"CADIZ";36.1311725;-5.4473991
1120006;"URB. LOS CAMAROTES-2 (MUXFIN)";"ALGECIRAS";"CADIZ";36.0962621;-5.4479692
1120007;"ALGECIRAS MUXFIN 2";"ALGECIRAS";"CADIZ";36.1311725;-5.4473991
1120090;"";"ALGECIRAS";"CADIZ";36.1311725;-5.4473991
1120777;"";"ALGECIRAS";"CADIZ";36.1311725;-5.4473991
1121002;"CENTRAL TELEFONICA";"SAN MARTIN DEL TESORILLO";"CADIZ";36.3411723;-5.3204960
1121011;"LINEA CONCEPCION/ZABAL";"LINEA DE LA CONCEPCION (LA)";"CADIZ";36.1737596;-5.3426544
1121012;"S.ROQUE/ALCAIDESA";"LINEA DE LA CONCEPCION (LA)";"CADIZ";36.1582961;-5.3404741
1121013;"LA LINEA/ZABAL II - MUX.6 STA.MARG.N.(ALFA)";"LINEA DE LA CONCEPCION, LA";"CADIZ";36.1582961;-5.3404741
1121014;"SAN ROQUE/LA ALCAIDESA TRO";"LINEA DE LA CONCEPCION (LA)";"CADIZ";36.1582961;-5.3404741
1122002;"JIMENA FRONTERA";"JIMENA DE LA FRONTERA";"CADIZ";36.4242640;-5.4341723
1122006;"S.PABLO BUCEITE";"JIMENA DE LA FRONTERA";"CADIZ";36.4667267;-5.4127822
1161003;"BORNOS";"BORNOS";"CADIZ";36.8160276;-5.7008237
1161007;"PRADO REY";"PRADO DEL REY";"CADIZ";36.7879415;-5.5572276
1161008;"VILLAMARTIN (CZ)";"VILLAMARTIN";"CADIZ";36.8591822;-5.6434544
1161011;"COTO BORNOS";"COTO DE BORNOS";"CADIZ";36.8449442;-5.6976499
1162001;"BARBATE FRANCO";"BARBATE";"CADIZ";42.8734659;-8.9156122
1162003;"VEJER FRONTERA";"VEJER DE LA FRONTERA";"CADIZ";36.2504625;-5.9682171
1162005;"CANTARRANAS";"CANTARRANAS";"CADIZ";36.6156629;-6.2746233
1162006;"ZAHARA ATUNES";"BARBATE";"CADIZ";36.1361147;-5.8455940
1162007;"NAVEROS";"VEJER DE LA FRONTERA";"CADIZ";36.3577569;-5.9778992
1162008;"VEJER FRONTERA/MUELA";"VEJER DE LA FRONTERA";"CADIZ";36.2701218;-5.9949765
1162010;"ZAHORA";"BARBATE";"CADIZ";36.2031094;-6.0398197
1162012;"VEJER/POBLADO VARELO";"VEJER DE LA FRONTERA";"CADIZ";36.2519370;-5.9670492
1163002;"SIDONIA";"BENALUP CASAS VIEJAS";"CADIZ";36.3662784;-5.8144549
1163004;"PATERNA RIVERA";"PATERNA DE RIVERA";"CADIZ";36.5298621;-5.8393351
1165001;"CHIPIONA";"CHIPIONA";"CADIZ";36.7379035;-6.4420849
1165003;"SANLUCAR B./ALGAIDA";"SANLUCAR DE BARRAMEDA";"CADIZ";36.7761393;-6.3534794
1165005;"SANLUCAR MUXFIN";"SANLUCAR DE BARRAMEDA";"CADIZ";36.7761393;-6.3534794
1165777;"";"SANLUCAR DE BARRAMEDA";"CADIZ";36.7761393;-6.3534794
3910003;"S/SARDINERO CT TSM - 3900006";"SANTANDER";"CANTABRIA";43.4618932;-3.8100255
3910006;"SD/RAOS";"SANTANDER";"CANTABRIA";43.4333779;-3.8326830
3910007;"SD/CUETO";"SANTANDER";"CANTABRIA";43.4833265;-3.8052347
3910008;"CAMARGO";"CAMARGO";"CANTABRIA";43.4079400;-3.8848700
3910009;"SD/NUEVA MONTAÑA";"SANTANDER";"CANTABRIA";43.4618932;-3.8100255
3910010;"IGOLLO ARMARIO U";"IGOLLO";"CANTABRIA";43.4311440;-3.8835232
3910013;"PECA/PCTCAN 1 ARMARIO U";"PEÑACASTILLO";"CANTABRIA";43.4458084;-3.8659624
3910090;"";"SANTANDER";"CANTABRIA";43.4618932;-3.8100255
3911007;"GUARNIZO";"GUARNIZO";"CANTABRIA";43.3987756;-3.8438326
3913005;"STA.CRUZ BEZANA";"STA. CRUZ DE BEZANA";"CANTABRIA";43.4386716;-3.9064762
3913006;"SOTO MARINA";"LIENCRES";"CANTABRIA";43.4604709;-3.9276180
3962004;"MIOÑO";"CASTRO-URDIALES";"CANTABRIA";43.3587228;-3.2017318
3962005;"ORIÑON";"ORIÑON";"CANTABRIA";43.3868775;-3.3206644
3962006;"SAMANO";"CASTRO-URDIALES";"CANTABRIA";43.3578453;-3.2297328
3962007;"ONTON";"ONTON";"CANTABRIA";43.3506378;-3.1734707
3967016;"CARTES";"CARTES";"CANTABRIA";43.3255300;-4.0697100
3967019;"TANOS/VIERNOLES";"TORRELAVEGA";"CANTABRIA";43.3265896;-4.0398733
1210009;"ALQUERIAS N.P., MUXFIN ULL FONDO";"ALQUERIAS NIÑO PERDIDO";"CASTELLON";39.8963328;-0.1143587
1212001;"BENICASIM";"BENICASSIM";"CASTELLON";40.0438100;0.0510300
1212006;"VOLTANS MONTORNES";"BENICASSIM";"CASTELLON";40.0551400;0.0636400
1213002;"BORRIOL";"BORRIOL";"CASTELLON";40.0416184;-0.0665890
1213012;"ABELLER";"BORRIOL";"CASTELLON";40.0422215;-0.0714919
1214004;"BURRIANA/GRAO";"BORRIANA/BURRIANA";"CASTELLON";39.8876912;-0.0846321
1215002;"MUXFIN  COLOMER A-10";"ONDA";"CASTELLON";39.9697532;-0.2263785
1215015;"ONDA-APEADERO (BETXI)";"ONDA";"CASTELLON";39.9512893;-0.1824033
1216007;"VALL D,UXO PTRO-1 MUXFIN P.MEZQUIT";"VALL D'UIXO (LA)";"CASTELLON";39.8237541;-0.2309831
1216008;"MUXFIN CARMADAY";"VALL D UXO";"CASTELLON";39.8225561;-0.2212781
1217003;"ALMASSORA PLAYA CT TSM - 1200090";"ALMAZORA/ALMASSORA";"CASTELLON";39.9435743;-0.0634783
1217004;"ALMAZORA/PLA";"ALMAZORA";"CASTELLON";39.9435743;-0.0634783
1217005;"ALMAZORA, MUXFIN-1";"ALMAZORA/ALMASSORA";"CASTELLON";39.9435743;-0.0634783
1264006;"SEGORBE CT TSM - 1200063";"SEGORBE";"CASTELLON";39.8519011;-0.4895537
1265011;"VINAROS/SUR";"VINAROS";"CASTELLON";40.4703992;0.4746076
1265015;"VINAROS L.CALES";"VINAROS";"CASTELLON";40.5085317;0.5035916
1265016;"EL COLLET";"BENICARLO";"CASTELLON";40.4353797;0.3977087
1310003;"VALVERDE (CR)";"CIUDAD REAL";"CIUDAD REAL";38.9640449;-4.0402733
1310005;"(CR/CA) MUXFIN 5 AEROPUERTO";"CIUDAD REAL";"CIUDAD REAL";38.9854201;-3.9285138
1310090;"";"CIUDAD REAL";"CIUDAD REAL";38.9854201;-3.9285138
1361001;"ALAMEDA CERVERA";"ALCAZAR DE SAN JUAN";"CIUDAD REAL";39.2650266;-3.1268463
1361004;"CAMPO DE CRIPTANA";"CAMPO DE CRIPTANA";"CIUDAD REAL";39.3981641;-3.1305425
1361005;"HERENCIA";"HERENCIA";"CIUDAD REAL";39.2682936;-3.3612396
1361006;"PEDRO MUÑOZ";"PEDRO MUÑOZ";"CIUDAD REAL";39.3910190;-2.8767739
1365006;"MALAGON";"MALAGON";"CIUDAD REAL";39.1669737;-3.8524564
1365007;"VILLARRUBIA OJOS";"VILLARRUBIA DE LOS OJOS";"CIUDAD REAL";39.2120887;-3.5994703
1365008;"CRISTO ESPIRITU SANTO";"MALAGON";"CIUDAD REAL";39.1954656;-4.0346715
1365009;"QUILES";"MALAGON";"CIUDAD REAL";39.2476488;-3.9511366
1366003;"MANZANARES";"MANZANARES";"CIUDAD REAL";39.0058959;-3.3705968
1366006;"HERRERA MANCHA - MANZANARES/MUXFIN-2";"MANZANARES";"CIUDAD REAL";38.9962242;-3.3722143
1368002;"ARGAMASILLA";"ARGAMASILLA DE CALATRAVA";"CIUDAD REAL";38.6998065;-4.0452096
1369002;"CINCO CASAS";"CINCO CASAS";"CIUDAD REAL";39.1745549;-3.2373797
1369004;"SOCUELLAMOS";"SOCUELLAMOS";"CIUDAD REAL";39.2785573;-2.7753973
1461001;"CARLOTA";"CARLOTA";"CORDOBA";37.7119384;-4.9438658
1461003;"QUINTANA";"QUINTANA";"CORDOBA";37.7130338;-4.8709225
1461008;"FUENCUBIERTA";"FUENCUBIERTA, LA";"CORDOBA";37.7089325;-4.9887613
1461010;"ARRECIFE (CD)";"ARRECIFE";"CORDOBA";38.4254062;-5.2547985
1461011;"LA CARLOTA";"CARLOTA";"CORDOBA";37.7141134;-5.0275512
1462003;"FERNAN NUÑEZ";"FERNAN NUÑEZ";"CORDOBA";37.6766926;-4.7231618
1463002;"HINOJOSA DUQUE";"HINOJOSA DEL DUQUE";"CORDOBA";38.4933728;-5.1335340
1465001;"AGUILAR FRONTERA";"AGUILAR DE LA FRONTERA";"CORDOBA";37.5205878;-4.6601639
1465002;"ALBENDIN";"ALBEDIN";"CORDOBA";37.8845813;-4.7760138
1465003;"BAENA";"BAENA";"CORDOBA";37.6140642;-4.3333242
1465007;"MONTILLA";"MONTILLA";"CORDOBA";37.5789991;-4.6336985
1466002;"BUJALANCE";"BUJALANCE";"CORDOBA";37.8973477;-4.3834555
1471001;"P.I. HUERTO DEL FRANCES";"PUENTE GENIL";"CORDOBA";37.3873950;-4.7716241
1471007;"MUXFIN EL PALOMAR";"PALOMAR, EL";"CORDOBA";37.8732498;-4.7492264
1510010;"CORUÑA-ESPACIO CORUÑA 1 Y 2 - SOMESO 1 Y 9";"CORUÑA (A)";"LA CORUÑA";43.3709703;-8.3959425
1510019;"CORUÑA-MARINEDA 1 - RITI";"CORUÑA, A";"LA CORUÑA";43.3709703;-8.3959425
1510090;"";"CORUÑA, A";"LA CORUÑA";43.3709703;-8.3959425
1511004;"PASTORIZA (ARTEIXO)";"ARTEIXO";"LA CORUÑA";43.3403342;-8.4559124
1511006;"CHAMIN (ARTEIXO)";"ARTEIXO";"LA CORUÑA";43.3010343;-8.5619225
1511007;"UXES (ARTEIXO)";"UXES (ARTEIXO)";"LA CORUÑA";43.2971593;-8.4438318
1511008;"ARTEIXO-OS OLIVOS";"ARTEIXO";"LA CORUÑA";43.3045943;-8.5082750
1511009;"ARTEIXO/CASAS NOVAS";"ARTEIXO";"LA CORUÑA";43.3045943;-8.5082750
1511010;"ARTEIXO-MONTEGOLF 2U";"ARTEIXO";"LA CORUÑA";43.3045943;-8.5082750
1512003;"LEDOÑO (CULLEREDO)";"CULLEREDO";"LA CORUÑA";43.2654428;-8.4170731
1512006;"ALVEDRO (CULLEREDO)";"CULLEREDO";"LA CORUÑA";43.3002594;-8.3796085
1512007;"CAMBRE";"CAMBRE";"LA CORUÑA";43.3709703;-8.3959425
1512008;"CULLEREDO";"CULLEREDO";"LA CORUÑA";43.3281169;-8.3821206
1512009;"CELAS (CULLEREDO)";"CULLEREDO";"LA CORUÑA";43.2884816;-8.3894589
1513005;"STA.CRUZ (OLEIROS-C)";"OLEIROS";"LA CORUÑA";43.3492744;-8.3458417
1513007;"MERA (OLEIROS)";"OLEIROS";"LA CORUÑA";43.3795013;-8.3375057
1513008;"OLEIROS-CANIDE ARMARIO U EAR";"OLEIROS";"LA CORUÑA";43.3548372;-8.3290882
1513009;"SADA-MONDEGO ARMARIO U EAR";"SADA";"LA CORUÑA";42.5871778;-1.3983063
1513010;"SADA-MEIRÁS ARMARIO U EAR";"SADA";"LA CORUÑA";43.3515799;-8.2534683
1513011;"OLEIROS-IÑÁS ARMARIO U";"OLEIROS";"LA CORUÑA";43.3548372;-8.3290882
1520005;"MANIÑOS (FENE)";"FENE";"LA CORUÑA";43.4516885;-8.1935334
1520006;"COBAS (FERROL)";"FERROL";"LA CORUÑA";43.5098818;-8.1745812
1520007;"MANDIA (FERROL)";"FERROL";"LA CORUÑA";43.5329585;-8.2372463
1520008;"BALTAR (NARON)";"NARON";"LA CORUÑA";43.5010981;-8.1923091
1520009;"CARBALLO (NARON)";"NARON";"LA CORUÑA";43.5010981;-8.1923091
1520013;"RIO POZO NARON";"NARON";"LA CORUÑA";43.5355467;-8.1967159
1520014;"FENE-VILAR DO COLO";"FENE";"LA CORUÑA";43.4472334;-8.1751761
1520090;"";"FERROL";"LA CORUÑA";43.4846862;-8.2331620
1530004;"ROXOS (SANTIAGO)";"SANTIAGO DE COMPOSTELA";"LA CORUÑA";42.8761625;-8.6105574
1530006;"SUSANA (SANTIAGO)";"SANTIAGO DE COMPOSTELA";"LA CORUÑA";42.8270591;-8.4893736
1530007;"SGO.COMPOSTELA/COSTA VELLA";"SANTIAGO DE COMPOSTELA";"LA CORUÑA";42.8804219;-8.5458608
1530018;"SANTIAGO-GAIÁS: RITI DA CIDADE DA";"SANTIAGO DE COMPOSTELA";"LA CORUÑA";42.8804219;-8.5458608
1530019;"SANTIAGO-BAR: ARMARIO U";"SANTIAGO DE COMPOSTELA";"LA CORUÑA";42.8804219;-8.5458608
1533005;"ORTOÑO (AMES)";"ORTOÑO (AMES)";"LA CORUÑA";42.8490213;-8.6362195
1533007;"SIONLLA ABAJO (SANTIAGO)";"SANTIAGO DE COMPOSTELA";"LA CORUÑA";42.8804219;-8.5458608
1533010;"LAVACOLLA (SANTIAGO)";"SANTIAGO DE COMPOSTELA";"LA CORUÑA";42.9002357;-8.4465396
1533017;"MERCOUTO (AMES)";"AMES";"LA CORUÑA";42.8907624;-8.6722374
1533020;"SANTIAGO-AEROPUERTO RITI";"SANTIAGO DE COMPOSTELA";"LA CORUÑA";42.8804219;-8.5458608
1561031;"PIADELA SUR";"BETANZOS";"LA CORUÑA";43.2738146;-8.2329329
1562013;"BERTOA (CARBALLO)";"CARBALLO";"LA CORUÑA";43.2187700;-8.6877600
1562022;"GUNTIAN (CARBALLO)";"CARBALLO";"LA CORUÑA";43.1941599;-8.6213490
1562024;"ENTRECRUCES (CARBALLO)";"CARBALLO";"LA CORUÑA";43.1316169;-8.6793403
1562025;"RAZO (CARBALLO)";"CARBALLO";"LA CORUÑA";43.2794373;-8.7126882
1562036;"REBORDELOS (CARBALLO)";"CARBALLO";"LA CORUÑA";43.2879044;-8.6449924
1563001;"AGUIÑO (RIBEIRA)";"RIBEIRA";"LA CORUÑA";42.5262299;-9.0237837
1563010;"RIBEIRA ER TSM - 1500056";"RIBEIRA";"LA CORUÑA";42.5778204;-9.0083426
1563019;"BRETAL (RIBEIRA)";"RIBEIRA";"LA CORUÑA";42.5931019;-9.0251654
1563030;"PONTE NAFONSO (OUTES)";"NOIA";"LA CORUÑA";42.8299743;-8.8776582
1579000;"";"CORUÑA, A";"LA CORUÑA";43.3709703;-8.3959425
1610001;"CN/MOTA";"CUENCA";"CUENCA";40.0661031;-2.1313528
1610090;"";"CUENCA";"CUENCA";40.0661031;-2.1313528
1611003;"MELGOSA";"CUENCA";"CUENCA";40.0260433;-2.0955057
1667013;"SAN CLEMENTE CT TSM - 1600012";"SAN CLEMENTE";"CUENCA";39.4034745;-2.4281278
1668019;"TARANCON";"TARANCON";"CUENCA";40.0065019;-3.0097829
1710002;"GI/GUELL";"GIRONA";"GIRONA";42.0837276;2.5966463
1710003;"SARRIÀ TER";"SARRIA DE TER";"GIRONA";42.0159528;2.8233245
1710004;"Girona-Creu";"GIRONA";"GIRONA";41.9850219;2.8201500
1710006;"GI/CAN XIRGU";"GIRONA";"GIRONA";41.9793006;2.8199439
1710090;"";"GIRONA";"GIRONA";41.9793006;2.8199439
1714002;"CASA SELVA";"CASA DE LA SELVA";"GIRONA";42.3373159;3.2047232
1761002;"LLORET MAR";"LLORET DE MAR";"GIRONA";41.7020849;2.8358066
1761004;"HOSTALET";"LLORET DE MAR";"GIRONA";41.6973503;2.8392392
1763009;"FIGUERES (GI)";"FIGUERES";"GIRONA";42.2650045;2.9689697
1767007;"PUIGCERDA";"PUIGCERDA";"GIRONA";42.4293732;1.9245617
1810090;"";"MOTRIL";"GRANADA";36.7450888;-3.5207655
1811001;"ALFACAR";"ALFACAR";"GRANADA";37.2305580;-3.5754262
1812002;"ALHENDIN";"ALHENDIN";"GRANADA";37.1122297;-3.6396591
1812004;"OTURA/MUXFINs ALONDRA Y STA CLARA";"OTURA";"GRANADA";37.0942895;-3.6345792
1812007;"GABIA GRANDE";"GABIA LA GRANDE";"GRANADA";37.1360927;-3.6738536
1812009;"GABIA GRANDE/VENTORRILLO - BLANQUILLA - VISTA ALEGRE - OLIVOS - PTRO5 - PEDROVERDE - HIJAR";"GABIAS (LAS)";"GRANADA";37.1325772;-3.6943628
1812010;"OTURA";"OTURA";"GRANADA";37.0853263;-3.6077825
1812012;"GABIA. MUXFIN 01241874 GABIA";"GABIA LA GRANDE";"GRANADA";37.1365244;-3.6694292
1812014;"ALHEDIN PTRO-1 MUXFIN CAÑADA DEL P";"ALHENDIN";"GRANADA";37.1078115;-3.6456986
1813005;"ZUBIA";"ZUBIA, LA";"GRANADA";37.1389601;-3.5895427
1813006;"ZUBIA/MUXFINs";"ZUBIA (LA)";"GRANADA";37.1206862;-3.5850833
1813007;"MUXFIN JEREZANA 29";"GRANADA";"GRANADA";37.1734995;-3.5995337
1813008;"GOJAR MUXFIN - OGIJARES MUXFIN";"GOJAR";"GRANADA";37.1044970;-3.6057759
1813009;"LAS MORAS";"CHURIANA DE LA VEGA";"GRANADA";37.1734995;-3.5995337
1814007;"PULIANAS";"PULIANAS";"GRANADA";37.2176125;-3.6096976
1815001;"GABIA GRANDE/MUXFIN1 CNO.CULLARVEG";"GABIA LA GRANDE";"GRANADA";37.1365244;-3.6694292
1815003;"GABIA GRANDE/MUXFIN2 CNO.CULLARVEG";"GABIA LA GRANDE";"GRANADA";37.1365244;-3.6694292
1815004;"ATARFE MUXFIN ESTACION";"ATARFE";"GRANADA";37.2226964;-3.6865662
1815005;"CHAUCHINA  CT";"CHAUCHINA";"GRANADA";37.2014921;-3.7724726
1815006;"ALBOLOTE/PRISION";"ALBOLOTE";"GRANADA";37.3299523;-3.6733594
1815007;"ILLORA";"ILLORA";"GRANADA";37.2862589;-3.8800477
1815009;"CHAUCHINA AEROPUERTO";"CHAUCHINA";"GRANADA";37.2014921;-3.7724726
1815012;"STA.FE";"SANTA FE (GRANADA)";"GRANADA";37.1895171;-3.7183561
1815013;"TOCON";"ILLORA";"GRANADA";37.2372602;-3.9665883
1815021;"ALOMARTES";"ALOMARTES";"GRANADA";37.2775714;-3.8973175
1815022;"CHAPARRAL (GR)";"CHAPARRAL, EL";"GRANADA";37.2640331;-3.6530410
1815023;"ESCOZNAR";"ESCOZNAR";"GRANADA";37.2405787;-3.8342976
1815025;"PARQUE CUBILLAS (GR)";"ALBOLOTE";"GRANADA";37.2854230;-3.6694890
1861001;"ALHAMA GRANADA";"ALHAMA DE GRANADA";"GRANADA";37.0031273;-3.9877368
1861008;"VENTAS ZAFARRAYA";"VENTAS DE ZAFARRAYA";"GRANADA";36.9573994;-4.1204760
1865041;"BACOR OLIVAR";"BACOR";"GRANADA";37.1734995;-3.5995337
1865042;"HERNAN VALLE";"HERNAN VALLE 1";"GRANADA";37.3733052;-3.0651200
1865044;"GUADIX. MUXFIN JUAN PEDERNAL";"GUADIX";"GRANADA";37.2991265;-3.1373303
1868003;"LOJA CT TSM - 1800038";"LOJA";"GRANADA";37.1664839;-4.1496374
1868006;"VENTORROS S.JOSE";"LOJA";"GRANADA";37.2473175;-4.1508432
1868007;"CUESTA PALMA";"CUESTA DE LA PALMA";"GRANADA";37.1368460;-4.2774317
1868009;"VENTORROS BALERMA";"LOJA";"GRANADA";37.2288514;-4.2541756
1868010;"RIOFRIO (GR)";"RIOFRIO";"GRANADA";37.1570947;-4.2089944
1868011;"FUENTE CAMACHO (LITESPAN)";"FUENTE CAMACHO";"GRANADA";37.0992727;-4.2564974
1868012;"LOJA/STA.BARBARA";"LOJA";"GRANADA";37.1779801;-4.1990818
1868013;"VENTORROS DE LAGUNA";"LOJA";"GRANADA";37.2029535;-4.2277929
1868014;"LOJA MUXFIN";"LOJA";"GRANADA";37.1751552;-4.1354079
1869001;"MOTRIL/PLAYA GRANADA";"MOTRIL";"GRANADA";36.7262725;-3.5384773
1869005;"CALAHONDA (GR)";"MOTRIL";"GRANADA";36.7450888;-3.5207655
1869008;"MOTRIL PTRO 2";"MOTRIL";"GRANADA";36.7450888;-3.5207655
1869017;"SALOBREÑA";"SALOBREÑA";"GRANADA";36.7437414;-3.5894119
1869019;"TORRENUEVA (GR)";"MOTRIL";"GRANADA";36.7232764;-3.4546110
1869022;"LOBRES";"SALOBREÑA";"GRANADA";36.7723279;-3.5647684
1910003;"MARCHAMALO C.T.";"MARCHAMALO";"GUADALAJARA";40.6689580;-3.2013493
1911001;"ALOVERA C.T.";"ALOVERA";"GUADALAJARA";40.5953571;-3.2487763
1911010;"ALOVERA MUXFIN ALVR.F22 URB. P. VA";"ALOVERA";"GUADALAJARA";40.5953571;-3.2487763
1911013;"AZUQUECA MUXFIN AZU.R022 SECTOR R2";"AZUQUECA DE HENARES";"GUADALAJARA";40.5683808;-3.2627134
1911014;"AZUQUECA MUXFIN AZU.R021 SECTOR R2";"AZUQUECA DE HENARES";"GUADALAJARA";40.5683808;-3.2627134
1911017;"AZUQUECA MUXFIN AZU.F020 SECTOR R3";"AZUQUECA DE HENARES";"GUADALAJARA";40.5683808;-3.2627134
2010001;"SS/San Marcial";"SAN SEBASTIAN";"GUIPUZCOA";43.3190791;-1.9812392
2010002;"AMARA CT TSM - 2000013";"SAN SEBASTIAN";"GUIPUZCOA";43.3224219;-1.9838889
2010003;"SS/ONDARRETA";"SAN SEBASTIAN";"GUIPUZCOA";43.3150873;-2.0055658
2010004;"ANDOAIN";"ANDOAIN";"GUIPUZCOA";43.2221450;-2.0156244
2010008;"OIARTZUN/ (P.I. LANBARREN)";"OYARZUN";"GUIPUZCOA";43.3027326;-1.8609097
2010013;"SS/MIRAMON";"SAN SEBASTIAN";"GUIPUZCOA";43.2924513;-1.9823474
2010014;"SORABILLA/ARMARIOS";"ANDOAIN";"GUIPUZCOA";43.2183411;-2.0199432
2010015;"SS/ ZUATZU 1";"SAN SEBASTIAN";"GUIPUZCOA";43.3224219;-1.9838889
2010090;"";"SAN SEBASTIAN";"GUIPUZCOA";43.3224219;-1.9838889
2011004;"IRUN/ZAISA 3";"IRUN";"GUIPUZCOA";43.3383176;-1.7888095
2012001;"TOLOSA/FUEROS";"TOLOSA";"GUIPUZCOA";43.1386097;-2.0723558
2065010;"ANGIOZAR";"BERGARA";"GUIPUZCOA";43.1131366;-2.4716549
2110004;"ALJARAQUE/CORRALES";"ALJARAQUE";"HUELVA";37.2665075;-6.9895703
2110006;"ALJARAQUE/5 MUXFINs";"ALJARAQUE";"HUELVA";37.2665075;-6.9895703
2113003;"ALJARAQUE/BELLAVISTA";"ALJARAQUE";"HUELVA";37.2665075;-6.9895703
2113005;"ALJARAQUE MUXFIN";"ALJARAQUE";"HUELVA";37.2664912;-7.0246859
2162002;"ISLA CRISTINA";"ISLA CRISTINA";"HUELVA";37.1935715;-7.3244556
2162007;"REDONDELA";"REDONDELA, LA";"HUELVA";37.2408349;-7.2878610
2164002;"CARTAYA";"CARTAYA";"HUELVA";37.3134257;-7.0907245
2164003;"LEPE/GRAVERA";"LEPE";"HUELVA";37.2795408;-7.2342525
2164011;"ANTILLA";"LEPE";"HUELVA";37.2075848;-7.2116537
2164012;"ROMPIDO";"CARTAYA";"HUELVA";37.2225915;-7.1237849
2164013;"ISLANTILLA";"LEPE";"HUELVA";37.2068717;-7.2268062
2164777;"";"LEPE";"HUELVA";37.2551712;-7.2015560
2166002;"BOLLULLOS PAR CONDADO";"BOLLULLOS DEL CONDADO";"HUELVA";37.3400823;-6.5519214
2166003;"MUXFIN DEHESA BOYAL";"PALMA DEL CONDADO, LA";"HUELVA";37.3907939;-6.5543606
2166007;"PALMA CONDADO";"PALMA DEL CONDADO, LA";"HUELVA";37.3907939;-6.5543606
2166777;"";"PALMA DEL CONDADO, LA";"HUELVA";37.3907939;-6.5543606
2210001;"HS/ALCORAZ";"HUESCA";"HUESCA";42.1038059;-0.4061273
2210090;"";"HUESCA";"HUESCA";42.1363785;-0.4365836
2263004;"VALLE CINCA";"BARBASTRO";"HUESCA";42.0054061;0.1292021
2263005;"BARBASTRO";"BARBASTRO";"HUESCA";42.0118850;0.0709738
2269004;"MONZON CT TSM - 2200027";"MONZON";"HUESCA";41.9137506;0.1930705
2269008;"SELGUA";"MONZON";"HUESCA";41.9298131;0.1187522
2311007;"HUELMA";"HUELMA";"JAEN";37.6172229;-3.5030538
2313001;"ALCAUDETE";"ALCAUDETE";"JAEN";37.5905173;-4.0884815
2313005;"LAS CASILLAS";"LAS CASILLAS";"JAEN";37.6390597;-4.0018312
2313007;"MONTE LOPE ALVAREZ";"MONTE LOPE ALVAREZ";"JAEN";37.7033798;-4.1136444
2313008;"TORRE CAMPO/NUEVA";"TORRE DEL CAMPO";"JAEN";37.7702055;-3.8972315
2313011;"BOBADILLA (JN)";"BOBADILLA";"JAEN";37.6609254;-4.1053135
2313012;"NOGUERONES";"LOS NOGUERONES";"JAEN";38.3385115;-2.7485853
2314003;"VILLARGORDO";"VILLATORRES";"JAEN";37.9410707;-3.7289263
2314004;"MENGIBAR MUXFIN";"MENGIBAR";"JAEN";37.9680499;-3.8087804
2361004;"RABITA (JN)";"ALCALA LA REAL";"JAEN";37.4619794;-3.9223840
2361006;"MURES";"ALCALA LA REAL";"JAEN";37.4223592;-3.8212989
2361007;"PEDRIZA";"ALCALA LA REAL";"JAEN";37.4114189;-3.9548390
2361008;"ERMITA NUEVA";"ALCALA LA REAL";"JAEN";37.4067212;-3.8684412
2361009;"STA.ANA (JN)";"ALCALA LA REAL";"JAEN";37.4619794;-3.9223840
2361010;"MUXFIN 2 URBANIZACION EL COTO";"ALCALA LA REAL";"JAEN";37.4569226;-4.0359118
2362002;"ARJONA";"ARJONA";"JAEN";38.0047199;-4.0780610
2362004;"ANDUJAR/AVE MARIA.FASTLINK+ASAM/C";"ANDUJAR";"JAEN";38.0392362;-4.0505603
2362008;"MARMOLEJO";"MARMOLEJO";"JAEN";38.0579381;-4.1860267
2362009;"PEÑALLANA";"ANDUJAR";"JAEN";38.1156130;-3.9604345
2362010;"PORCUNA";"PORCUNA";"JAEN";37.8784983;-4.1821626
2362777;"";"ANDUJAR";"JAEN";37.9949199;-4.0224984
2364004;"QUESADA";"QUESADA";"JAEN";37.8006627;-3.0636540
2364012;"BELERDAS";"BELERDAS";"JAEN";37.9557275;-3.4920556
2365007;"CAROLINA";"LA CAROLINA";"JAEN";38.2742478;-3.6152701
2365012;"VILCHES";"VILCHES";"JAEN";38.2157347;-3.5176996
2365014;"GUADALEN";"VILCHES";"JAEN";38.1420110;-3.5066741
2365016;"LINARES FASTLINK Y ASAM-C";"LINARES";"JAEN";38.0931247;-3.6357207
2365018;"LINARES MUXFIN RUBIALES II - PTRO 18";"LINARES";"JAEN";38.0931247;-3.6357207
2365019;"BAILEN";"BAILEN";"JAEN";38.0943416;-3.7751346
2365020;"AVENIDA DE LA ILUSTRACION";"LA CAROLINA";"JAEN";38.2705241;-3.6165722
2365777;"";"LINARES";"JAEN";38.0931247;-3.6357207
2367004;"PTRO 5, POLIGONO LOS CERROS MUXFIN";"UBEDA";"JAEN";38.0111398;-3.3719098
2367013;"SOLANA TORRALBA";"SOLANA DE TORRALBA";"JAEN";37.9883811;-3.1711135
2367777;"";"UBEDA";"JAEN";38.0111398;-3.3719098
2410006;"VILLARRODRIGO REGUERAS";"VILLAQUILAMBRE";"LEON";42.6349132;-5.5349678
2410012;"S.ANDRES RABANEDO";"SAN ANDRES DEL RABANEDO";"LEON";42.6148987;-5.6199081
2410030;"FERRAL BERNESGA";"SAN ANDRES DEL RABANEDO";"LEON";42.6112327;-5.6168662
2410037;"NAVATEJERA/ALTOLLANO";"NAVATEJERA";"LEON";42.6276110;-5.5652470
2410090;"";"SAN ANDRES DEL RABANEDO";"LEON";42.6112327;-5.6168662
2413002;"VIRGEN CAMINO";"VIRGEN DEL CAMINO, LA";"LEON";42.5800874;-5.6412836
2413007;"MONTEJOS CAM";"MONTEJOS DEL CAMINO";"LEON";42.5843866;-5.6892021
2413008;"S.MIGUEL CAMINO";"SAN MIGUEL DEL CAMINO";"LEON";42.5630909;-5.6971302
2413013;"S.MIGUEL CAMINO/GOLF";"VALVERDE DE LA VIRGEN";"LEON";42.5659062;-5.7384764
2461010;"ASTORGA/POL.INDUSTRIAL";"ASTORGA";"LEON";42.4553555;-6.0529025
2465010;"TORAL MERAYO";"PONFERRADA";"LEON";42.5246829;-6.6347452
2465013;"VILLAR BARRI";"PONFERRADA";"LEON";42.5454124;-6.5938719
2465015;"DEHESAS";"PONFERRADA";"LEON";42.5454124;-6.5938719
2465017;"SAN ESTEBAN VALDUEZA";"SAN ESTEBAN DE LA VALDUEZA";"LEON";42.5989995;-5.5682413
2465020;"FUENTES NUEVAS";"PONFERRADA";"LEON";42.5774280;-6.6491203
2465021;"PONFERRADA/EUROPA - TORRE - LEALTAD - ROSALEDA - ROSA FERPI";"PONFERRADA";"LEON";42.5454124;-6.5938719
2465022;"PONFERRADA/PATRICIA";"PONFERRADA";"LEON";42.5526636;-6.5705809
2479000;"";"SAN ANDRES DEL RABANEDO";"LEON";42.6112327;-5.6168662
2513004;"BORGES BLANQUES";"BORGES BLANQUES";"LLEIDA";41.5214072;0.8779098
2562006;"BALAGUER";"BALAGUER";"LLEIDA";41.7420124;0.7576027
2564001;"CERVERA";"CERVERA";"LLEIDA";41.6712953;1.2698204
2565010;"MOLLERUSSA";"MOLLERUSSA";"LLEIDA";41.6317967;0.8969107
2571010;"TARREGA";"TARREGA";"LLEIDA";41.6502246;1.1388857
2571012;"CLARAVALLS";"TARREGA";"LLEIDA";41.7022860;1.1267836
2710003;"LU-CEAO";"LUGO";"LUGO";42.9913122;-7.5908294
2710004;"CARBALLAL";"LUGO";"LUGO";43.0396042;-7.4566071
2710005;"VILLAESTEVEZ";"LUGO";"LUGO";43.0396042;-7.4566071
2710006;"NADELA";"LUGO";"LUGO";42.9695226;-7.5043369
2710007;"GARABELOS";"GARABOLOS";"LUGO";43.0293641;-7.5705415
2710008;"A CAMPIÑA";"LUGO";"LUGO";43.0338423;-7.5317244
2710009;"LU/LOUZANETA";"LUGO";"LUGO";42.9913122;-7.5908294
2710090;"";"LUGO";"LUGO";42.9913122;-7.5908294
2769018;"TOXEIRAS";"VIVEIRO";"LUGO";43.6231293;-7.6056322
2779000;"";"LUGO";"LUGO";42.9913122;-7.5908294
2811002;"LA MORALEJA CT TSM - 2800028";"ALCOBENDAS";"MADRID";40.5141357;-3.6758196
2811005;"ALCOBENDAS/POLIG.";"ALCOBENDAS";"MADRID";40.5141357;-3.6758196
2811007;"FUENTE EL FRESNO";"FUENTE DEL FRESNO";"MADRID";40.5893183;-3.5835724
2811008;"S.SEBASTIAN REYES/FITL300";"ALGETE";"MADRID";40.3885236;-3.6943910
2811009;"PTRO NUM.0333-FITL";"ALCOBENDAS";"MADRID";40.5141357;-3.6758196
2811010;"ALCOBENDAS/FITL - S.SEBASTIAN REYES/FITL";"SAN SEBASTIAN DE LOS REYES";"MADRID";40.5473698;-3.6260586
2811016;"ALCOBENDAS/POLIGONO-FITL 766 PTRO";"ALCOBENDAS";"MADRID";40.5178058;-3.6423766
2813002;"PINTO/AIMAYR";"PINTO";"MADRID";40.3929442;-3.6968041
2815002;"MEJORADA CAMPO";"MEJORADA DEL CAMPO";"MADRID";40.3941263;-3.4882921
2815003;"RIVAS VACIAMADRID";"RIVAS DE VACIAMADRID";"MADRID";40.3282849;-3.5204381
2815005;"RIVAS JARAMA";"RIVAS DEL JARAMA";"MADRID";40.4167047;-3.7035825
2815006;"VELILLA CT TSM - 2800265";"VELILLA DE SAN ANTONIO";"MADRID";40.3671660;-3.4874435
2815008;"RIVAS VACIAMADRID/FITL - RIVAS/FITL";"RIVAS DE VACIAMADRID";"MADRID";40.3546484;-3.5030321
2861003;"DAGANZO ARRIBA";"DAGANZO DE ARRIBA";"MADRID";40.5442100;-3.4596156
2861004;"LOECHES/X";"LOECHES";"MADRID";40.3822055;-3.4483101
2861010;"AJALVIR";"AJALVIR";"MADRID";40.5311728;-3.4905767
2861022;"LOECHES/FITL 5 a 8";"LOECHES";"MADRID";40.4312993;-3.7329821
2862002;"CIEMPOZUELOS";"CIEMPOZUELOS";"MADRID";40.1591185;-3.6099165
2862012;"ARANJUEZ/C.PENIT.";"ARANJUEZ";"MADRID";40.0322100;-3.6039604
2862013;"S.MARTIN VEGA/FITL2 - FITL4";"SAN MARTIN DE LA VEGA";"MADRID";40.2110462;-3.5771806
2862015;"ARANJUEZ/FITL36";"ARANJUEZ";"MADRID";40.0349494;-3.6186492
2862018;"CIEMPOZUELOS/FITL10";"CIEMPOZUELOS";"MADRID";40.1580087;-3.6205514
2865003;"COLLADO VILLALBA/FITL";"COLLADO VILLALBA";"MADRID";40.6431496;-3.9930128
2865006;"COLLADO VILLALBA";"COLLADO VILLALBA";"MADRID";40.6373567;-4.0015777
2867005;"COLMENAR VIEJO";"COLMENAR VIEJO";"MADRID";40.6450997;-3.7780323
2867006;"MOLAR";"MOLAR, EL";"MADRID";40.7299364;-3.5911019
2867029;"COLMENAR VIEJO/FITL44";"COLMENAR VIEJO";"MADRID";40.6587726;-3.7659722
2869004;"GRIÑON";"GRIÑON";"MADRID";40.2265945;-3.8443845
2869006;"NAVALCARNERO";"NAVALCARNERO";"MADRID";40.2924662;-3.9809457
2869009;"TORREJON DE LA CALZADA";"TORREJON  DE CALZADA";"MADRID";40.4059559;-3.5779361
2869030;"MUXFIN PTRO 38";"NAVALCARNERO";"MADRID";40.4399768;-3.6767679
2869031;"GRIÑON/FITL6";"GRIÑON";"MADRID";40.4385998;-3.6779167
2869036;"TORREJON CALZADA/FITL5";"TORREJON  DE CALZADA";"MADRID";40.4069816;-3.5774260
2910020;"TORREMOLINOS MUXFIN";"TORREMOLINOS";"MALAGA";36.6242841;-4.4995448
2913002;"CARTAMA";"CARTAMA";"MALAGA";36.7196423;-4.6113615
2913003;"VILLAFRANCA GUADALHORCE";"ALHAURIN EL GRANDE";"MALAGA";36.6421248;-4.6867447
2913004;"CARTAMA PUEBLO";"CARTAMA";"MALAGA";36.7213028;-4.4216366
2913005;"CARTAMA E.F.C.";"CARTAMA";"MALAGA";36.7196423;-4.6113615
2914001;"BENALMADENA";"BENALMADENA";"MALAGA";36.5863706;-4.5634650
2914003;"BENALMADENA";"BENALMADENA";"MALAGA";36.5863706;-4.5634650
2914004;"BENALMADENA COSTA";"BENALMADENA";"MALAGA";36.5863706;-4.5634650
2961005;"ARCHIDONA";"ARCHIDONA";"MALAGA";37.1026511;-4.3096168
2961006;"BOBADILLA (MA)";"BOBADILLA";"MALAGA";37.0376401;-4.7279832
2961010;"ANTEQUERA MUXFIN";"ANTEQUERA";"MALAGA";37.0183652;-4.5596649
2961023;"JOYA NOGALES";"ANTEQUERA";"MALAGA";37.0183652;-4.5596649
2961027;"CARTAOJAL";"ANTEQUERA";"MALAGA";37.0183652;-4.5596649
2961030;"SALINAS (MA)";"SALINAS";"MALAGA";36.7448644;-4.4908386
2961777;"";"ANTEQUERA";"MALAGA";37.0183652;-4.5596649
2962002;"ALORA";"ALORA";"MALAGA";36.8197098;-4.6993991
2962008;"COIN MUXFIN";"COIN";"MALAGA";36.6600506;-4.7565615
2962010;"SAN JORGE Y PACA MUXFIN - ALHAURIN G.MUXFIN TERRAZASALHAURIN";"ALHAURIN EL GRANDE";"MALAGA";36.6421248;-4.6867447
2962016;"GIBRALGALIA";"GIBRALGALIA";"MALAGA";36.7490271;-4.7666146
2962022;"MELLIZAS";"ALORA";"MALAGA";36.8732189;-4.7192019
2962777;"";"COIN";"MALAGA";36.6600506;-4.7565615
2963018;"ESTEPONA/VELERIN";"ESTEPONA";"MALAGA";36.4600949;-5.0798755
2963019;"ESTEPONA/MUXFINs 2";"ESTEPONA";"MALAGA";36.4268068;-5.1468484
2963027;"ESTEPONA/MUXFINs";"ESTEPONA";"MALAGA";36.4169627;-5.1562838
2965027;"MARO";"MARO";"MALAGA";36.7573198;-3.8437773
2965030;"URBANIZACION EL CHAPARIL II";"NERJA";"MALAGA";36.7468565;-3.8790164
3012004;"FENAZAR/FENAZAR TRO-1";"MOLINA DE SEGURA";"MURCIA";38.0583976;-1.2024152
3012006;"ALTORREAL";"ALTORREAL";"MURCIA";38.0735669;-1.1684632
3012008;"P.IND.LA ESTRELLA MUXFI TRO1 - TR03";"MOLINA DE SEGURA";"MURCIA";38.0583976;-1.2024152
3012009;"ALTORREAL/LO PIQUERAS MUXFIN TRO1";"ALTORREAL";"MURCIA";38.0735669;-1.1684632
3012011;"MDES/URB. CASA DEL AIRE TRO Nº4";"MOLINA DE SEGURA";"MURCIA";38.0558899;-1.2075949
3020003;"ALBUJON";"CARTAGENA";"MURCIA";37.7099989;-1.0494996
3020004;"PALMA";"CARTAGENA";"MURCIA";37.6067900;-0.9910500
3020005;"PUEBLA";"CARTAGENA";"MURCIA";37.7850615;-0.8513814
3020006;"POZO ESTRECHO";"POZO ESTRECHO";"MURCIA";37.7100620;-0.9921834
3020007;"ALUMBRES";"ALUMBRES";"MURCIA";37.6060377;-0.9146644
3020008;"ALJORRA";"CARTAGENA";"MURCIA";37.6941427;-1.0861154
3020009;"CANTERAS";"CANTERAS";"MURCIA";37.4146824;-1.5750043
3020010;"CUESTA BLANCA";"CARTAGENA";"MURCIA";37.6423185;-1.0950896
3020011;"TALLANTE";"TALLANTE";"MURCIA";37.6464984;-1.1584798
3020012;"VENTORRILLOS";"CARTAGENA";"MURCIA";37.6642128;-1.0118255
3020014;"VALLE ESCOMBRERAS";"VALLE DE ESCOMBRERAS";"MURCIA";37.5805408;-0.9231839
3020016;"PUERTO SANTA BARBARA";"CARTAGENA";"MURCIA";37.6561101;-1.0139687
3020018;"ALBUJON";"CARTAGENA";"MURCIA";37.7099989;-1.0494996
3020019;"CARTAGENA PARQUE MEDITERRANEO";"CARTAGENA";"MURCIA";37.6243091;-0.9501586
3021006;"ISLA PLANA";"ISLA PLANA";"MURCIA";37.5731724;-1.1997036
3021010;"LIBRILLERAS";"LORCA";"MURCIA";37.5405685;-1.4659095
3021011;"AZOHIA + TSM - 3001464";"AZOHIA, LA";"MURCIA";37.5532697;-1.1683955
3023001;"LLANO BEAL";"CARTAGENA";"MURCIA";37.6237528;-0.8362873
3023002;"UNION/P.I.LOS CAMACHOS TRO1";"CARTAGENA";"MURCIA";37.6484300;-0.9156780
3023003;"MANGA/VIVERO";"MANGA, LA";"MURCIA";37.7362919;-0.7385496
3023005;"LOS BELONES";"CARTAGENA";"MURCIA";37.6229712;-0.7780725
3023007;"ALGAR (MU)";"ALGAR, EL";"MURCIA";37.6480454;-0.8673494
3023008;"NIETOS";"CARTAGENA";"MURCIA";37.6493843;-0.7865547
3023009;"ROCHE BAJO";"ROCHE BAJO";"MURCIA";37.6268764;-0.9232403
3023010;"PORTMAN";"PORTMAN";"MURCIA";37.5888675;-0.8440126
3023011;"URRUTIAS  TSM - 3000064";"CARTAGENA";"MURCIA";37.6561101;-1.0139687
3023012;"MANGA CLUB";"CARTAGENA";"MURCIA";37.6048272;-0.7981247
3023014;"MAR CRISTAL";"CARTAGENA";"MURCIA";37.6392488;-0.7621109
3066002;"ALMENDRICOS";"LORCA";"MURCIA";37.4747549;-1.7795765
3066003;"AVILES (MU)";"LORCA";"MURCIA";37.9064401;-1.7975927
3066004;"LORC/CIUDAD AUTOMOVIL TRO Nº1";"LORCA";"MURCIA";37.6711989;-1.6988592
3066007;"TOTANA/RESIDENCIAL ESPUÑA TRO1";"TOTANA";"MURCIA";37.7697645;-1.5025376
3066009;"PACA";"PACA, LA";"MURCIA";37.8718836;-1.8342966
3066010;"FUENSANTA (MU)";"FUENSANTA";"MURCIA";37.9375232;-1.1182251
3066011;"ZARZADILLA TOTANA";"ZARZADILLA DE TOTANA";"MURCIA";37.8781205;-1.7085397
3066012;"HOYA LORCA";"LORCA";"MURCIA";37.7039257;-1.5954901
3066013;"CANTAREROS";"TOTANA";"MURCIA";37.7697645;-1.5025376
3066014;"TODOSOL";"TODOSOL";"MURCIA";37.4275508;-1.5399072
3066015;"CALABARDINA";"CALABARDINA";"MURCIA";37.9923795;-1.1305431
3066016;"CASAS D/L MONJAS";"LORCA";"MURCIA";37.6711989;-1.6988592
3066018;"CAMPANA CABILDO";"LORCA";"MURCIA";37.6711989;-1.6988592
3066021;"COY";"LORCA";"MURCIA";37.9476236;-1.8126487
3066022;"TORRE DEL OBISPO TRO-1";"LORCA";"MURCIA";37.6711989;-1.6988592
3066023;"ZARCILLA RAMOS";"ZARCILLA DE RAMOS";"MURCIA";37.8412208;-1.8734979
3110002;"PAMPLONA/ESTE CT TSM - 3100003";"PAMPLONA";"NAVARRA";42.8181992;-1.6440089
3110005;"PA/BARAÑAIN";"PAMPLONA";"NAVARRA";42.8181992;-1.6440089
3111001;"AIZOAIN";"AIZOAIN";"NAVARRA";42.8437925;-1.6767049
3112005;"GORRAIZ";"GORRAIZ";"NAVARRA";42.8213624;-1.5814069
3113005;"NOAIN";"NOAIN";"NAVARRA";42.7627828;-1.6341152
3113006;"IMARCOAIN";"IMARCOAIN";"NAVARRA";42.7441574;-1.6299383
3114004;"ORCOYEN";"ORCOYEN";"NAVARRA";42.8238072;-1.6965298
3114005;"P/GESTAMP TSM-3100401";"ARAZURI";"NAVARRA";42.8164762;-1.7208426
3161001;"ALSASUA";"ALSASUA";"NAVARRA";42.8951765;-2.1799954
3165007;"ESTELLA";"ESTELLA";"NAVARRA";42.6822588;-2.0559686
3166001;"IRURZUN";"IRURTZUN";"NAVARRA";42.9184675;-1.8286391
3167004;"LEIZA";"LEITZA";"NAVARRA";43.0783895;-1.9189788
3169015;"TAFALLA CT TSM - 3100028";"TAFALLA";"NAVARRA";42.4850213;-1.6980170
3170020;"TUDELA/MONTE CIERZO";"TUDELA";"NAVARRA";42.0516535;-1.6124031
3172009;"VIANA";"VIANA";"NAVARRA";42.5149542;-2.3720127
3173005;"S.ADRIAN";"SAN ADRIAN";"NAVARRA";42.3405991;-1.9395668
3210003;"UNTES  CT / EB TSM - 3200034";"OURENSE";"OURENSE";42.3438932;-7.8571791
3210008;"ALBAREDO";"OURENSE";"OURENSE";42.2155377;-7.2050478
3210013;"BEIRO (SAS)";"OURENSE";"OURENSE";42.1939629;-7.5371240
3210017;"STA.MARIÑA MONTE";"OURENSE";"OURENSE";42.3190572;-7.8312073
3210090;"";"OURENSE";"OURENSE";42.3438932;-7.8571791
3211005;"COSTOIA (CARBALLIÑO)";"COSTOIA (CARBALLIÑO, O)";"OURENSE";42.4769266;-8.0566477
3264012;"MANDIN";"VERIN";"OURENSE";41.8504778;-7.4182244
3264013;"FECES ABAJO";"VERIN";"OURENSE";41.9406091;-7.4406032
3410007;"VENTA DE BAÑOS POLIGONO INDUSTRIAL";"VENTA DE BAÑOS";"PALENCIA";41.9256819;-4.4883731
3413004;"VENTA BAÑOS";"VENTA DE BAÑOS";"PALENCIA";41.9174015;-4.4962674
3413006;"VILLAM.CERRA";"VILLAMURIEL DE CERRATO";"PALENCIA";41.9515154;-4.5151999
3510001;"LP/PTRO 76(LP.GU)LAS RAMBLAS GOLF";"PALMAS DE GRAN CANARIA, LAS";"LAS PALMAS";28.1579336;-15.4196512
3510003;"LP/ALTAVISTA";"PALMAS DE GRAN CANARIA, LAS";"LAS PALMAS";28.1579336;-15.4196512
3510004;"LP/GUANARTEME";"PALMAS DE GRAN CANARIA, LAS";"LAS PALMAS";28.1579336;-15.4196512
3510007;"GC/TAFIRA CT";"TAFIRA";"LAS PALMAS";28.0745805;-15.4514820
3510009;"LP/TARAHALES";"PALMAS DE GRAN CANARIA, LAS";"LAS PALMAS";28.1579336;-15.4196512
3510011;"GILES-CASA AYALA";"PALMAS DE GRAN CANARIA (LAS)";"LAS PALMAS";28.1207002;-15.4759123
3510013;"LP/LAS TORRES";"PALMAS DE GRAN CANARIA, LAS";"LAS PALMAS";28.1579336;-15.4196512
3510015;"LA MINILLA PARC.6 LIT1540";"PALMAS DE GRAN CANARIA, LAS";"LAS PALMAS";28.1579336;-15.4196512
3510016;"LA MINILLA PARC.12-13 LIT1540";"PALMAS DE GRAN CANARIA, LAS";"LAS PALMAS";28.1288694;-15.4349010
3510018;"LA MINILLA PARC.14-16 LIT1540";"PALMAS DE GRAN CANARIA, LAS";"LAS PALMAS";28.1288694;-15.4349010
3510019;"LA MINILLA PARC.2 LIT1540";"PALMAS DE GRAN CANARIA, LAS";"LAS PALMAS";28.1288694;-15.4349010
3510021;"LA MINILLA PARC.9 LIT1540";"PALMAS DE GRAN CANARIA, LAS";"LAS PALMAS";28.1579336;-15.4196512
3510022;"LAS PALMAS G.C.PTRO 71";"PALMAS DE GRAN CANARIA, LAS";"LAS PALMAS";28.1288694;-15.4349010
3510023;"LAS PALMAS G.C.PTRO";"PALMAS DE GRAN CANARIA, LAS";"LAS PALMAS";28.1579336;-15.4196512
3510024;"LAS PALMAS DE GC PTRO 0069";"PALMAS DE GRAN CANARIA, LAS";"LAS PALMAS";28.1579336;-15.4196512
3510025;"LA MINILLA PAR.1 LIT1540";"PALMAS DE GRAN CANARIA, LAS";"LAS PALMAS";28.1579336;-15.4196512
3510028;"LAS PALMAS/MAHIA GOLF(LP.GU)";"PALMAS DE GRAN CANARIA, LAS";"LAS PALMAS";28.1579336;-15.4196512
3510033;"TAFIRA-PTRO 002-LOS TUCANES";"TAFIRA";"LAS PALMAS";28.0745805;-15.4514820
3510034;"MUXFIN VERACRUZ-MARIANAO";"PALMAS DE GRAN CANARIA, LAS";"LAS PALMAS";28.1579336;-15.4196512
3510092;"";"PALMAS DE GRAN CANARIA, LAS";"LAS PALMAS";28.1579336;-15.4196512
3513001;"OJOS GARZA";"TELDE";"LAS PALMAS";27.9464847;-15.3945888
3513002;"TELDE";"TELDE";"LAS PALMAS";27.9989730;-15.4118188
3513005;"TELDE-PTRO 1-LA ERMITA";"TELDE";"LAS PALMAS";27.9984538;-15.4166760
3513007;"GORO-MUXFIN NAVES GRUPO DUNAS";"GORO, EL (TELDE)";"LAS PALMAS";27.9682557;-15.3939262
3513008;"BREÑA";"BREÑA, LA (TELDE)";"LAS PALMAS";27.9658596;-15.4770258
3513010;"GORO";"TELDE";"LAS PALMAS";27.9586630;-15.3989360
3513011;"LA GARITA/P.EMP.JINAMAR";"TELDE";"LAS PALMAS";27.9984538;-15.4166761
3513012;"JINAMAR CRUZ DE LA GALLINA - CC EL MIRADOR";"JINAMAR";"LAS PALMAS";28.0329047;-15.4191651
3513013;"GANDO AEROPUERTO MUXFIN";"TELDE";"LAS PALMAS";27.9984538;-15.4166761
3562006;"STA.LUCIA";"SANTA LUCIA DE TIRAJANA";"LAS PALMAS";27.9106721;-15.5405162
3562007;"VECINDARIO";"VECINDARIO";"LAS PALMAS";27.8494562;-15.4405441
3562021;"VECINDARIO PTRO 01- EL SOCO";"VECINDARIO";"LAS PALMAS";27.8466856;-15.4407750
3562022;"POZO IZQUIERDO PTRO 2";"POZO IZQUIERDO-STA.L.TIRAJANA";"LAS PALMAS";27.8253474;-15.4243976
3563001;"ARRECIFE (LP)";"ARRECIFE";"LAS PALMAS";28.9639681;-13.5499014
3563025;"ARRECIFE-PTRO 003-MUXF. TANGANILLO";"ARRECIFE";"LAS PALMAS";28.9639681;-13.5499014
3579000;"";"SANTA LUCIA DE TIRAJANA";"LAS PALMAS";27.9115471;-15.5405202
3610002;"PT/CAMPOLONGO ARM/MULTISERVICIO";"PONTEVEDRA";"PONTEVEDRA";42.4318876;-8.6431592
3610005;"XEVE EB";"PONTEVEDRA";"PONTEVEDRA";42.4788622;-8.5773508
3610006;"CAMPAÑO";"PONTEVEDRA";"PONTEVEDRA";42.4318876;-8.6431592
3610008;"PT/MONTEPORREIRO";"PONTEVEDRA";"PONTEVEDRA";42.4318876;-8.6431592
3610009;"";"PONTEVEDRA";"PONTEVEDRA";42.4318876;-8.6431592
3610090;"";"PONTEVEDRA";"PONTEVEDRA";42.4318876;-8.6431592
3611005;"SOAXE";"MARIN";"PONTEVEDRA";42.3657845;-8.7346336
3621004;"DOMAIO";"MOAÑA";"PONTEVEDRA";42.3038854;-8.6887474
3621005;"HIO";"CANGAS";"PONTEVEDRA";42.2779080;-8.8478941
3622003;"BUDIÑO CONTENEDOR";"PORRIÑO (O)";"PONTEVEDRA";42.1618812;-8.6202683
3622004;"GRANXA,A";"GRANXA, A";"PONTEVEDRA";42.4006700;-8.7587805
3622006;"PORRIÑO/GANDARAS MUXFIN";"PORRIÑO (O)";"PONTEVEDRA";42.1618812;-8.6202683
3663015;"OURAL (PT)";"SALVATERRA DE MIÑO";"PONTEVEDRA";42.1081233;-8.4897936
3663019;"SERRA (PTEAREAS-PADRONES)";"PONTEAREAS";"PONTEVEDRA";42.1741836;-8.5050427
3663020;"PONTEAREAS";"CARRASQUEIRA";"PONTEVEDRA";42.1778580;-8.5083951
3663022;"PONTEAREAS/PEREIRO ARMARIO U";"PONTEAREAS";"PONTEVEDRA";42.1741836;-8.5050427
3666003;"CAMBADOS/SETE PIAS";"CAMBADOS";"PONTEVEDRA";42.5295701;-8.7730505
3666019;"BOUZA";"CAMBADOS";"PONTEVEDRA";42.4835709;-8.8043758
2611007;"VILLAMEDIANA DE IREGUA";"VILLAMEDIANA DE IREGUA";"LA RIOJA";42.4222762;-2.4176799
2613003;"LARDERO";"LARDERO";"LA RIOJA";42.4278963;-2.4609105
2613008;"LG/SIERRA";"LOGROÑO";"LA RIOJA";42.4661196;-2.4396676
2613011;"LARDERO/SECTOR T1 - LARDERO/SECTOR R1";"LARDERO";"LA RIOJA";42.4272883;-2.4624393
2661001;"ALFARO";"ALFARO";"LA RIOJA";42.1866089;-1.7481374
2664004;"HARO CT  TSM-2600018";"HARO";"LA RIOJA";42.5768922;-2.8466768
2665007;"NAJERA CT TSM - 2600023";"NAJERA";"LA RIOJA";42.4167450;-2.7336874
3710008;"STA.MARTA TORMES/S.BLAS";"STA. MARTA DE TORMES";"SALAMANCA";40.9499990;-5.6274568
3710011;"CARRETERA SALAMANCA";"CARBAJOSA DE LA SAGRADA";"SALAMANCA";40.9426357;-5.6532459
3761037;"POLIGONO";"BEJAR";"SALAMANCA";40.3837283;-5.7701004
3763004;"BOCACARA";"CIUDAD RODRIGO";"SALAMANCA";40.6746511;-6.4030981
3763050;"CIUDAD RODRIGO/POL.VIÑAS";"CIUDAD RODRIGO";"SALAMANCA";40.5973921;-6.5335182
3767013;"PEÑARANDA BRACAMONTE";"PEÑARANDA DE BRACAMONTE";"SALAMANCA";40.8980610;-5.2068868
3810003;"SC/PORLIER";"STA. CRUZ DE TENERIFE";"SANTA CRUZ DE TENERIFE";28.3887583;-16.5854577
3810007;"S.CRISTOBAL LAGUNA";"SAN CRISTOBAL DE LA LAGUNA";"SANTA CRUZ DE TENERIFE";28.4870483;-16.3140403
3810008;"TF/TACO CT TSM - 3800059";"STA. CRUZ DE TENERIFE";"SANTA CRUZ DE TENERIFE";28.3887583;-16.5854577
3810009;"S.ANDRES (SC)";"SANTA CRUZ DE TENERIFE";"SANTA CRUZ DE TENERIFE";28.4687096;-16.2528224
3810010;"TAGANANA";"SANTA CRUZ DE TENERIFE";"SANTA CRUZ DE TENERIFE";28.4687096;-16.2528224
3810011;"TEJINA";"TEJINA";"SANTA CRUZ DE TENERIFE";28.5352039;-16.3609575
3810013;"GUAMASA";"GUAMASA";"SANTA CRUZ DE TENERIFE";28.4923208;-16.3667484
3810014;"MAJUELOS";"MAJUELOS, LOS";"SANTA CRUZ DE TENERIFE";28.4583914;-16.2994856
3810016;"PUNTA HIDALGO";"SANTA CRUZ DE TENERIFE";"SANTA CRUZ DE TENERIFE";28.5763895;-16.3288060
3810017;"IGUESTE";"IGUESTE SAN ANDRES";"SANTA CRUZ DE TENERIFE";28.5237691;-16.1494968
3810018;"VALLESECO";"VALLESECO";"SANTA CRUZ DE TENERIFE";28.4872086;-16.2371817
3810020;"MERCEDES, LAS";"SANTA CRUZ DE TENERIFE";"SANTA CRUZ DE TENERIFE";28.4687096;-16.2528224
3810021;"VALLE GUERRA";"SAN CRISTOBAL DE LA LAGUNA";"SANTA CRUZ DE TENERIFE";28.5215207;-16.3892836
3810022;"MINA";"LA MINA";"SANTA CRUZ DE TENERIFE";28.4614674;-16.3368402
3810030;"PTRO CAMINO LOS ANDENES";"LOS ANDENES";"SANTA CRUZ DE TENERIFE";28.4493851;-16.3056439
3810090;"";"SANTA CRUZ DE TENERIFE";"SANTA CRUZ DE TENERIFE";28.4671780;-16.2507843
3811002;"BARRANCO HONDO";"CANDELARIA";"SANTA CRUZ DE TENERIFE";28.4671780;-16.2507843
4010001;"SG/HUERTOS";"SEGOVIA";"SEGOVIA";40.9864082;-4.2060194
4010005;"REVENGA";"REVENGA";"SEGOVIA";40.8721902;-4.1022136
4010007;"SG/LUZ CASTILLA";"SEGOVIA";"SEGOVIA";40.9222840;-4.1111726
4010010;"HONTORIA/P.IND.";"HONTORIA";"SEGOVIA";40.9075314;-4.1107515
4010017;"HONTORIA/CONSTITUCION";"HONTORIA (SEGOVIA)";"SEGOVIA";40.9078871;-4.1237381
4010090;"";"SEGOVIA";"SEGOVIA";40.9481192;-4.1172101
4012003;"MADRONA";"SEGOVIA";"SEGOVIA";40.8976318;-4.1712888
4012007;"MADRONA/C. PENITENCIARIO";"SEGOVIA";"SEGOVIA";40.9481192;-4.1172101
4012008;"FUENTEMILANOS";"SEGOVIA";"SEGOVIA";40.8748988;-4.2278588
4014002;"HONTANARES ERESMA/RIO";"HONTANARES DE ERESMA";"SEGOVIA";40.9822979;-4.2035613
4061001;"VALDESIMONTE/HUERTOS";"SEGOVIA";"SEGOVIA";40.9481192;-4.1172101
4064012;"PARADINA/ALAMO";"SEGOVIA";"SEGOVIA";40.7620094;-4.4458832
4079000;"";"SEGOVIA";"SEGOVIA";40.9481192;-4.1172101
4110001;"SEVILLA/ 5 MUXFINs";"SEVILLA";"SEVILLA";37.3886303;-5.9953403
4110018;"TOMARES";"TOMARES";"SEVILLA";37.3597453;-6.0514860
4110020;"SANTIPONCE";"SANTIPONCE";"SEVILLA";37.4412732;-6.0444000
4110029;"SAN JUAN DE AZNALFARACHE MUXFIN";"SAN JUAN DE AZNALFARACHE";"SEVILLA";37.3599507;-6.0328600
4112004;"GUILLENA";"GUILLENA";"SEVILLA";37.5426585;-6.0517616
4112005;"ALGABA";"ALGABA, LA";"SEVILLA";37.4582492;-6.0094746
4112009;"TORRE REINA";"TORRE De LA REINA";"SEVILLA";37.5099431;-6.0241192
4112011;"PAJANOSAS";"PAJANOSAS, LAS";"SEVILLA";37.5780856;-6.1035374
4112012;"PAJANOSAS MUXFIN";"PAJANOSAS, LAS";"SEVILLA";37.5780856;-6.1035374
4112013;"GUILLENA MUXFIN";"GUILLENA";"SEVILLA";37.5464709;-6.0570520
4113003;"MUXFIN/MAIRENA ALJAR/LAS BRISAS 2";"MAIRENA DEL ALJARAFE";"SEVILLA";37.3444908;-6.0606771
4113004;"MAIRENA ALJ./GRANADILLOS";"MAIRENA DEL ALJARAFE";"SEVILLA";37.3444908;-6.0606771
4113005;"VILLAFRANCO GUADALQ.";"ISLA MAYOR";"SEVILLA";37.1324663;-6.1648075
4113007;"PUEBLA RIO";"PUEBLA DEL RIO";"SEVILLA";37.2750657;-6.1568491
4113008;"PALOMARES RIO";"PALOMARES DEL RIO";"SEVILLA";37.3151925;-6.0831075
4113009;"ALFONSO XIII";"ISLA MAYOR";"SEVILLA";37.1626174;-6.1632399
4113011;"MUXFIN POL. CITEC";"GELVES";"SEVILLA";37.3395756;-6.0260114
4113012;"GELVES";"GELVES";"SEVILLA";37.3254602;-6.0271113
4113014;"MUXFIN/CORIA RIO/PERI ROCIO2";"CORIA DEL RIO";"SEVILLA";37.2892112;-6.0535287
4113015;"MUXFIN SAN ANTONIO-GORDAL";"PALOMARES DEL RIO";"SEVILLA";37.3189698;-6.0634037
4115003;"OLIVARES";"OLIVARES";"SEVILLA";37.4023295;-6.1839606
4115006;"VALENCINA CONCEPCION";"VALENCINA DE LA CONCEPCION";"SEVILLA";37.4161743;-6.0765925
4115010;"UMBRETE";"UMBRETE";"SEVILLA";37.3703979;-6.1567531
4115011;"SALTERAS";"SALTERAS";"SEVILLA";37.4102906;-6.0989709
4115013;"MUXFIN ARGENTUM";"SALTERAS";"SEVILLA";37.4188774;-6.1109126
4115015;"MUXFIN ALTOS DE GINES";"GINES";"SEVILLA";37.3877985;-6.0785818
4115018;"MUXFIN SR-8 VILLANUEVA ARISCAL";"VILLANUEVA DEL ARISCAL";"SEVILLA";37.3966241;-6.1444552
4161003;"MARCHENA";"MARCHENA";"SEVILLA";37.3343424;-5.4254964
4162004;"CASTILBLANCO ARROYOS";"CASTILBLANCO DE LOS ARROYOS";"SEVILLA";37.6724008;-5.8953673
4162009;"VILLAVERDE RIO";"VILLAVERDE DEL RIO";"SEVILLA";37.5881835;-5.8735288
4165005;"ISLA REDONDA";"ECIJA";"SEVILLA";37.4514877;-4.8845636
4165006;"VILLANUEVA DEL REY LITESPAN";"VILLANUEVA DEL REY";"SEVILLA";37.5265702;-5.1588303
4165007;"ECIJA";"ECIJA";"SEVILLA";37.5434532;-5.0831570
4165009;"MUXFIN SEDESA";"VILLANUEVA DEL REY";"SEVILLA";37.5265702;-5.1588303
4166002;"LORA RIO";"LORA DEL RIO";"SEVILLA";37.6612874;-5.5310778
4166003;"PEÑAFLOR";"PEÑAFLOR";"SEVILLA";37.7073685;-5.3407988
4166004;"PRIORATO";"PRIORATO, EL";"SEVILLA";37.6919108;-5.4392200
4166005;"MUXFIN P.I. MATALLANA";"LORA DEL RIO";"SEVILLA";37.6574267;-5.5275818
4170004;"LEBRIJA CT TSM - 4100043";"LEBRIJA";"SEVILLA";36.9193102;-6.0764057
4170007;"MONTELLANO";"MONTELLANO";"SEVILLA";37.0118857;-5.5062486
4170011;"PINZON";"PINZON";"SEVILLA";37.1098472;-6.0156654
4170014;"TORBISCAL";"EL TORBISCAL";"SEVILLA";37.0843622;-5.8568287
4170016;"UTRERA MUXFIN";"UTRERA";"SEVILLA";37.1833437;-5.7902404
4170018;"GUADALEMA QUINTEROS";"GUADALEMA DE LOS QUINTEROS";"SEVILLA";37.3886303;-5.9953403
4170019;"PALMAR TROYA";"PALMAR TROYA";"SEVILLA";37.0597856;-5.8032650
4170020;"TRAJANO";"UTRERA";"SEVILLA";37.0700268;-5.9081286
4170021;"MUXFIX";"LEBRIJA";"SEVILLA";36.9193102;-6.0764057
4210006;"";"SORIA";"SORIA";41.7633842;-2.4642041
4210090;"";"SORIA";"SORIA";41.7633842;-2.4642041
4302006;"MORELL";"MORELL, EL";"TARRAGONA";41.1923783;1.2063559
4310002;"TG/IMPERIAL";"TARRAGONA";"TARRAGONA";41.1172364;1.2530982
4310004;"TG/S.SALVADOR";"TARRAGONA";"TARRAGONA";41.1172364;1.2530982
4310007;"TG/LLEVANT";"TARRAGONA";"TARRAGONA";41.1778404;1.4165025
4310090;"";"TARRAGONA";"TARRAGONA";41.1172364;1.2530982
4311006;"TORREDEMBARRA TSM - 4300050";"TORREDEMBARRA";"TARRAGONA";41.1461550;1.3959508
4312015;"VALLS";"VALLS";"TARRAGONA";41.2895828;1.2587091
4321003;"CAMBRILS/VILAFORTUNY";"CAMBRILS";"TARRAGONA";41.0705064;1.0533369
4368001;"ARBOC";"ARBOÇ, L ";"TARRAGONA";41.2736739;1.6004144
4368008;"Bº MARITIM COMARRUGA";"COMA-RUGA";"TARRAGONA";41.1818421;1.5216275
4410001;"TE/TORICO";"TERUEL";"TERUEL";40.3436719;-1.1081939
4410002;"TE/AMERICA";"TERUEL";"TERUEL";40.6005259;-0.9229281
4410005;"VILLASPESA";"TERUEL";"TERUEL";40.2985016;-1.1223901
4410090;"";"TERUEL";"TERUEL";40.3436719;-1.1081939
4411001;"CAUDE";"TERUEL";"TERUEL";40.3436719;-1.1081939
4411003;"CELLA";"CELLA";"TERUEL";40.4824454;-0.3202643
4467007;"UTRILLAS";"BARRIADA OBRERA DEL SUR";"TERUEL";40.8069397;-0.8450516
2862005;"SESEÑA/JARAMA (TO)";"SESEÑA";"MADRID";40.3985421;-3.7599408
2862009;"SESEÑA/NUEVO (TO)";"SESEÑA";"MADRID";40.3985421;-3.7599408
2862016;"SESEÑA/FITL19";"SESEÑA";"MADRID";40.1048269;-3.6963093
4510090;"";"TALAVERA DE LA REINA";"TOLEDO";39.9603798;-4.8311717
4511002;"BARGAS";"BARGAS";"TOLEDO";39.9240061;-4.0217093
4512001;"MOCEJON";"MOCEJON";"TOLEDO";39.9396947;-3.9163783
4550105;"";"ILLESCAS";"TOLEDO";40.1248436;-3.8492688
4562002;"AÑOVER DE TAJO";"AÑOVER DE TAJO";"TOLEDO";40.0331070;-3.7567961
4562014;"YUNCOS";"YUNCOS";"TOLEDO";40.1057831;-3.8952852
4562022;"ILLE/URB.MORATALAZ FASTLINK";"ILLESCAS";"TOLEDO";40.1248436;-3.8492688
4562026;"ILLESCAS MUXFIN SEÑORIA - SAN LORENZO - PI BOADILLA";"ILLESCAS";"TOLEDO";40.1208917;-3.8423250
4563002;"CONSUEGRA";"CONSUEGRA";"TOLEDO";39.4534984;-3.6114271
4563003;"MADRIDEJOS";"MADRIDEJOS";"TOLEDO";39.5295230;-3.6025790
4565008;"OCAÑA";"OCAÑA";"TOLEDO";39.9558746;-3.4988103
4565009;"ONTIGOLA";"ONTIGOLA";"TOLEDO";40.0017166;-3.5738714
4565014;"YEPES";"YEPES";"TOLEDO";39.9021542;-3.6302109
4565015;"OCAÑA MUXFIN C/ TOLEDO";"OCAÑA";"TOLEDO";39.9586665;-3.5007717
4568006;"MIGUEL ESTEBAN";"MIGUEL ESTEBAN";"TOLEDO";39.5171646;-3.0516994
4568007;"QUINTANAR ORDEN";"QUINTANAR DE LA ORDEN";"TOLEDO";39.5782267;-3.0463144
4569014;"TALAVERA NUEVA";"TALAVERA DE LA REINA";"TOLEDO";39.9352751;-4.8917714
4569019;"TALAVERA REINA/TOHERRIERO";"TALAVERA DE LA REINA";"TOLEDO";39.9603798;-4.8311717
4569020;"MUXFIN GAMONAL";"GAMONAL";"TOLEDO";39.9609346;-4.9597208
4570009;"FUENSALIDA";"FUENSALIDA";"TOLEDO";40.0470493;-4.2109508
4570012;"PUEBLA MONTALBAN";"PUEBLA DE MONTALBAN, LA";"TOLEDO";39.8750294;-4.3698635
4570023;"TORRIJOS";"TORRIJOS";"TOLEDO";39.9788063;-4.2831624
4579000;"";"OCAÑA";"TOLEDO";39.9586665;-3.5007717
4611005;"PICASSENT PTRO9 MUXFIN UR EL PINAR";"PICASSENT";"VALENCIA";39.3635190;-0.4611789
4611006;"PICASSENT/PARQUE";"PICASSENT";"VALENCIA";39.3635190;-0.4611789
4613007;"PLAYA POBLA FARNALS";"POBLA DE FARNALS (LA)";"VALENCIA";39.5651707;-0.2818443
4613008;"ALFINACH URB. LOS MONASTERIOS";"ALFINACH";"VALENCIA";39.6162910;-0.3119401
4661013;"POBLA LLARGA";"POBLA LLARGA, LA";"VALENCIA";39.0832888;-0.4696305
4663007;"BETERA MUXFIN";"BETERA";"VALENCIA";41.9120404;-2.4805196
4663008;"BASE MILITAR";"BETERA";"VALENCIA";39.6236348;-0.4722956
4664002;"BUÑOL";"BUÑOL";"VALENCIA";39.4270963;-0.7873995
4664004;"CENTRAL CHESTE";"CHESTE";"VALENCIA";39.4939368;-0.6842101
4664014;"CHESTE CIRCUITO ALTA VELOCIDAD";"CHESTE";"VALENCIA";39.4939368;-0.6842101
4667009;"GANDIA MUXFIN ARM. R.-C.C.LA VITAL";"GANDIA";"VALENCIA";38.9675925;-0.1803423
4667012;"XERACO";"XERACO";"VALENCIA";39.0262212;-0.2147859
4667024;"PLAYA XERACO";"PLAYA DE XERACO";"VALENCIA";39.0299573;-0.1809315
4667028;"ARMARIO TIPO J";"GANDIA";"VALENCIA";38.9675925;-0.1803423
4669002;"ARMARIO TIPO U";"POBLA DE VALLBONA, LA";"VALENCIA";39.5856110;-0.5516390
4670004;"ONTINYENT MUXFIN URB EL PILAR";"ONTINYENT";"VALENCIA";38.8208523;-0.6099929
4670006;"ONTINYENT/PLA";"ONTINYENT";"VALENCIA";38.8208523;-0.6099929
4670010;"ONTINYENT/ALTET";"ONTINYENT";"VALENCIA";38.8208523;-0.6099929
4671004;"PORTERA";"PORTERA, LA";"VALENCIA";40.2609759;-0.3631516
4671005;"DUQUES";"LOS DUQUES";"VALENCIA";39.4338739;-1.2062021
4671006;"ISIDROS";"ISIDROS, LOS";"VALENCIA";39.4179395;-1.2903029
4671009;"S.ANTONIO";"REQUENA";"VALENCIA";39.5200250;-1.1532220
4671012;"PEDRONES";"PEDRONES, LOS";"VALENCIA";39.3364032;-1.0823471
4671013;"CAMPO ARCIS";"CAMPO ARCIS";"VALENCIA";39.4697065;-0.3763353
4671014;"CASAS DEL RIO";"CASAS DEL RIO";"VALENCIA";39.4697065;-0.3763353
4671015;"MUXFIN EN EL REBOLLAR";"REQUENA";"VALENCIA";39.4880777;-1.1001643
4672006;"FAURA";"FAURA";"VALENCIA";39.3759289;-0.5741032
4672007;"GILET";"GILET";"VALENCIA";39.6794324;-0.3205986
4672009;"PLAYA CANET";"PLAYA DE CANET";"VALENCIA";39.6938159;-0.1994720
4672011;"PUERTO DE SAGUNTO F27 - F28 - F30 - MUXFIN";"SAGUNTO/SAGUNT";"VALENCIA";39.6792916;-0.2786451
4673004;"PERELLO (V)";"SUECA";"VALENCIA";39.2766828;-0.2770574
4673006;"ELS MARENYS";"ELS MARENYS";"VALENCIA";39.0114109;-0.1801610
4673007;"CULLERA FARO  TSM - 4600011";"CULLERA FARO";"VALENCIA";39.1865109;-0.2169764
4674002;"ARM.  TIPO U";"UTIEL";"VALENCIA";39.5680797;-1.2051604
4674007;"CORRALES (V)";"CORRALES, LOS";"VALENCIA";39.5954327;-1.2714154
4674011;"UTIEL";"UTIEL";"VALENCIA";39.5707443;-1.2023561
4674017;"ESTENAS";"ESTENAS";"VALENCIA";39.5966209;-1.1148153
4674022;"TORRE DE UTIEL PTRO-3 MUXFIN";"TORRE, LA (UTIEL)";"VALENCIA";39.6694627;-1.2647204
4710007;"CISTERNIGA";"CISTERNIGA";"VALLADOLID";41.6249707;-4.6603499
4710013;"ARROYO/SALERO";"ARROYO";"VALLADOLID";41.6096408;-4.7972809
4710019;"CISTERNIGA/OLMO";"CISTERNIGA";"VALLADOLID";41.6121464;-4.6851558
4711001;"CABEZON PISUERGA";"CABEZON DE PISUERGA";"VALLADOLID";41.7235896;-4.6755794
4712001;"CIGALES";"CIGALES";"VALLADOLID";41.7718687;-4.6812095
4713013;"LAGUNA DUERO/FTE.TITANES";"LAGUNA DE DUERO";"VALLADOLID";41.5828110;-4.7214404
4713017;"LAGUNA DUERO/LOBAS";"LAGUNA DE DUERO";"VALLADOLID";41.5639202;-4.7332881
4715001;"TUDELA DUERO";"TUDELA DE DUERO";"VALLADOLID";41.5509446;-4.6521467
4715003;"HERRERA DUERO";"TUDELA DE DUERO";"VALLADOLID";41.5634633;-4.6533821
4763004;"ISCAR";"ISCAR";"VALLADOLID";41.3651033;-4.5374395
4763010;"ISCAR/P.CAÑADAS LLOSA";"ISCAR";"VALLADOLID";41.3634512;-4.5338953
4766008;"TORDESILLAS";"TORDESILLAS";"VALLADOLID";41.5159842;-5.0117221
4766013;"MONTICO";"TORDESILLAS";"VALLADOLID";41.5095033;-4.9419864
4766014;"VILLAMARCIEL";"VILLAMARCIEL";"VALLADOLID";41.5303600;-4.8855510
4810009;"BL/GRAN VIA";"BILBAO";"VIZCAYA";43.2630018;-2.9350039
4810027;"ERLETXES CT";"GALDAKAO";"VIZCAYA";43.2332639;-2.8453385
4810029;"KAREAGA";"BARAKALDO";"VIZCAYA";43.2866170;-3.0058020
4810030;"MERCABILBAO";"MERCABILBAO (BASAURI)";"VIZCAYA";43.2330647;-2.8869305
4810035;"BL/TORRE IBERDROLA";"BILBAO";"VIZCAYA";43.2679701;-2.9386426
4810077;"";"BILBAO";"VIZCAYA";43.2630018;-2.9350039
4811005;"BOROA - GOROZIKIA";"BOROA";"VIZCAYA";43.2406929;-2.7489995
4813005;"ERGOIEN/MARURI y LARRAURI";"MUNGIA";"VIZCAYA";43.3540663;-2.8464157
4879000;"";"VALLE DE TRAPAGA";"VIZCAYA";43.3030620;-3.0392135
4910004;"CARRASCAL DE DUERO";"ZAMORA";"ZAMORA";41.5056332;-5.7447550
4910008;"ZAMORA/HINIESTA";"ZAMORA";"ZAMORA";41.5642640;-5.8737790
4910009;"ZAMORA/OBISPO";"ZAMORA";"ZAMORA";41.5053390;-5.7513475
4910099;"";"ZAMORA";"ZAMORA";41.5056332;-5.7447550
5011002;"MARIA HUERVA";"MARIA DE HUERVA";"ZARAGOZA";41.5302422;-0.9904449
5012003;"PUEBLA ALFIINDEN";"PUEBLA DE ALFINDEN, LA";"ZARAGOZA";41.6315870;-0.7508841
5014001;"VILLAN. GALLEGO";"VILLANUEVA DE GALLEGO";"ZARAGOZA";41.7679783;-0.8216753
5019030;"Z/VALDECONSEJO 1 - 2 - 3";"ZARAGOZA";"ZARAGOZA";41.6521342;-0.8809428
5061001;"ALAGON (Z)";"ALAGON";"ZARAGOZA";41.7716254;-1.1126082
5063002;"CALATORAO";"CALATORAO";"ZARAGOZA";41.5261176;-1.3450624
5063005;"ALMUNIA CT TSM-5000109";"ALMUNIA DE DOÑA GODINA, LA";"ZARAGOZA";41.5064145;-1.3489651
5063011;"RICLA";"RICLA";"ZARAGOZA";41.5012756;-1.4027915
5069001;"EJEA/POL.VALDEFERRIN - 2 - 3";"EJEA DE LOS CABALLEROS";"ZARAGOZA";42.1264892;-1.1382958
5069002;"BARDENAS";"EJEA DE LOS CABALLEROS";"ZARAGOZA";40.8189679;-1.7595184
5069006;"EJEA";"EJEA DE LOS CABALLEROS";"ZARAGOZA";42.1107963;-1.1455209
5069007;"BAYO";"EJEA DE LOS CABALLEROS";"ZARAGOZA";42.1264892;-1.1382958
5069008;"FARASDUES";"EJEA DE LOS CABALLEROS";"ZARAGOZA";42.1264892;-1.1382958
5069013;"STA.ANASTASIA";"EJEA DE LOS CABALLEROS";"ZARAGOZA";42.1409174;-1.2296608
5069015;"PINSORO";"EJEA DE LOS CABALLEROS";"ZARAGOZA";42.1968703;-1.3371067
5069016;"VALAREÑA";"EJEA DE LOS CABALLEROS";"ZARAGOZA";42.1323003;-1.3094443
5069017;"RIVAS";"EJEA DE LOS CABALLEROS";"ZARAGOZA";42.1682413;-1.1344885
5075004;"TARAZONA ARAGON";"TARAZONA DE ARAGON";"ZARAGOZA";41.9055886;-1.7207742
5076003;"ZUERA/LLANOS ESTACION";"ZUERA";"ZARAGOZA";41.8659094;-0.7886383
5076010;"ZUERA";"ZUERA";"ZARAGOZA";41.8772930;-0.7641283
5076012;"ONTINAR SALZ";"ZUERA";"ZARAGOZA";41.9356630;-0.7573891
5076016;"ZUERA/CAMPILLO";"ZUERA";"ZARAGOZA";41.8898367;-0.7866566
